,Unnamed: 0,OBJECTID,ID,TransferYear,Directory,FactSheetUrl,ZoomLevel,Latitude,Longitude,Name,NameMnemonic,StateCode,PublicWebpageUrl,RegulatoryDriver,MaintenanceCategory,SiteCoordSysWkid,SiteCoordSysWkt,AvailableOnWeb,ShortName,LastUpdated,LastRun,geometry,Unnamed: 0,OBJECTID,ID,TransferYear,Directory,FactSheetUrl,ZoomLevel,Latitude,Longitude,Name,NameMnemonic,StateCode,PublicWebpageUrl,RegulatoryDriver,MaintenanceCategory,SiteCoordSysWkid,SiteCoordSysWkt,AvailableOnWeb,ShortName,LastUpdated,LastRun,geometry,Name,State,historical,rcp26,rcp45,rcp60,rcp85
0,0,1,1,1998,\NM\AmbrosiaLakeDisposal,https://www.lm.doe.gov/WorkArea/linkit.aspx?LinkIdentifier=id&ItemID=1478,15,35.408798,-107.79928500000001,"Ambrosia Lake, NM, Disposal Site",AMB,NM,https://www.energy.gov/lm/ambrosia-lake-new-mexico-disposal-site,UMTRCA Title I,2.0,32014,,Y,Ambrosia Lake Disposal Site,1603926315000,1614900504000,POINT (-12000161.5141 4219574.868500002),0,1,1,1998,\NM\AmbrosiaLakeDisposal,https://www.lm.doe.gov/WorkArea/linkit.aspx?LinkIdentifier=id&ItemID=1478,15,35.408798,-107.79928500000001,"Ambrosia Lake, NM, Disposal Site",AMB,NM,https://www.energy.gov/lm/ambrosia-lake-new-mexico-disposal-site,UMTRCA Title I,2.0,32014,,Y,Ambrosia Lake Disposal Site,1603926315000,1614900504000,POINT (-12000161.5141 4219574.868500002),AMB,NM,0.7103372578837609,0.7117336667006577,0.7103383178102686,0.6807957808023082,0.7086792413179439
1,1,2,2,2008,\AK\Amchitka,https://www.lm.doe.gov/WorkArea/linkit.aspx?LinkIdentifier=id&ItemID=491,13,51.436583,179.179778,"Amchitka, AK, Site",AMC,AK,https://www.energy.gov/lm/amchitka-alaska-site,Nevada Offsites,2.0,102640,,Y,Amchitka Site,1603926315000,1614900632000,POINT (19946201.6474 6698886.590599999),1,2,2,2008,\AK\Amchitka,https://www.lm.doe.gov/WorkArea/linkit.aspx?LinkIdentifier=id&ItemID=491,13,51.436583,179.179778,"Amchitka, AK, Site",AMC,AK,https://www.energy.gov/lm/amchitka-alaska-site,Nevada Offsites,2.0,102640,,Y,Amchitka Site,1603926315000,1614900632000,POINT (19946201.6474 6698886.590599999),AMC,AK,,,,,
2,2,3,3,2004,\NM\L-BarDisposal,https://www.lm.doe.gov/WorkArea/linkit.aspx?LinkIdentifier=id&ItemID=1515,15,35.187651,-107.334722,"L-Bar, NM, Disposal Site",BAR,NM,https://www.energy.gov/lm/l-bar-new-mexico-disposal-site,UMTRCA Title II,2.0,6318,,Y,L-Bar Disposal Site,1611875114000,1614899644000,POINT (-11948446.5975 4189411.496299997),2,3,3,2004,\NM\L-BarDisposal,https://www.lm.doe.gov/WorkArea/linkit.aspx?LinkIdentifier=id&ItemID=1515,15,35.187651,-107.334722,"L-Bar, NM, Disposal Site",BAR,NM,https://www.energy.gov/lm/l-bar-new-mexico-disposal-site,UMTRCA Title II,2.0,6318,,Y,L-Bar Disposal Site,1611875114000,1614899644000,POINT (-11948446.5975 4189411.496299997),BAR,NM,0.7114693800758687,0.7128373472349925,0.7111892118797535,0.6824345390775326,0.7098793620938755
3,3,4,4,1997,\NM\BluewaterDisposal,https://www.lm.doe.gov/WorkArea/linkit.aspx?LinkIdentifier=id&ItemID=1491,14,35.270623,-107.947483,"Bluewater, NM, Disposal Site",BLU,NM,https://www.energy.gov/lm/bluewater-new-mexico-disposal-site,UMTRCA Title II,2.0,6318,,Y,Bluewater Disposal Site,1603926315000,1614899646000,POINT (-12016658.84 4200718.815499999),3,4,4,1997,\NM\BluewaterDisposal,https://www.lm.doe.gov/WorkArea/linkit.aspx?LinkIdentifier=id&ItemID=1491,14,35.270623,-107.947483,"Bluewater, NM, Disposal Site",BLU,NM,https://www.energy.gov/lm/bluewater-new-mexico-disposal-site,UMTRCA Title II,2.0,6318,,Y,Bluewater Disposal Site,1603926315000,1614899646000,POINT (-12016658.84 4200718.815499999),BLU,NM,0.6911107335002141,0.6919089796920549,0.6905975851545821,0.662103984654521,0.6884842403190092
4,4,5,5,2004,\PR\BONUSDecommissionedReactor,https://www.lm.doe.gov/WorkArea/linkit.aspx?LinkIdentifier=id&ItemID=1787,18,18.364744,-67.268557,"BONUS, PR, Decommissioned Reactor Site",BON,PR,https://www.energy.gov/lm/bonus-puerto-rico-decommissioned-reactor-site,D&D,2.0,-1,,Y,BONUS Decommissioned Reactor Site,1614899113000,1614901141000,POINT (-7488301.511600001 2080285.691300001),4,5,5,2004,\PR\BONUSDecommissionedReactor,https://www.lm.doe.gov/WorkArea/linkit.aspx?LinkIdentifier=id&ItemID=1787,18,18.364744,-67.268557,"BONUS, PR, Decommissioned Reactor Site",BON,PR,https://www.energy.gov/lm/bonus-puerto-rico-decommissioned-reactor-site,D&D,2.0,-1,,Y,BONUS Decommissioned Reactor Site,1614899113000,1614901141000,POINT (-7488301.511600001 2080285.691300001),BON,PR,,,,,
5,5,6,6,1994,\PA\BurrellDisposal,https://www.lm.doe.gov/WorkArea/linkit.aspx?LinkIdentifier=id&ItemID=1806,15,40.433059,-79.242531,"Burrell, PA, Disposal Site",BUR,PA,https://www.energy.gov/lm/burrell-pennsylvania-disposal-site,UMTRCA Title I,2.0,6318,,Y,Burrell Disposal Site,1614639917000,1614900649000,POINT (-8821238.200099999 4929074.244400002),5,6,6,1994,\PA\BurrellDisposal,https://www.lm.doe.gov/WorkArea/linkit.aspx?LinkIdentifier=id&ItemID=1806,15,40.433059,-79.242531,"Burrell, PA, Disposal Site",BUR,PA,https://www.energy.gov/lm/burrell-pennsylvania-disposal-site,UMTRCA Title I,2.0,6318,,Y,Burrell Disposal Site,1614639917000,1614900649000,POINT (-8821238.200099999 4929074.244400002),BUR,PA,2.9667308491947812,3.1316878963131805,3.1434233926739443,3.165194351381518,3.1923105963134266
6,6,7,7,1996,\PA\CanonsburgDisposal,https://www.lm.doe.gov/WorkArea/linkit.aspx?LinkIdentifier=id&ItemID=1811,17,40.256152,-80.199721,"Canonsburg, PA, Disposal Site",CAN,PA,https://www.energy.gov/lm/canonsburg-pennsylvania-disposal-site,UMTRCA Title I,2.0,6318,,Y,Canonsburg Disposal Site,1614639917000,1614900648000,POINT (-8927792.103499999 4903235.708700001),6,7,7,1996,\PA\CanonsburgDisposal,https://www.lm.doe.gov/WorkArea/linkit.aspx?LinkIdentifier=id&ItemID=1811,17,40.256152,-80.199721,"Canonsburg, PA, Disposal Site",CAN,PA,https://www.energy.gov/lm/canonsburg-pennsylvania-disposal-site,UMTRCA Title I,2.0,6318,,Y,Canonsburg Disposal Site,1614639917000,1614900648000,POINT (-8927792.103499999 4903235.708700001),CAN,PA,2.6579037663395866,2.803943423985286,2.8121621453232986,2.8353399822353436,2.8587797621204367
7,7,8,8,2008,\NV\CentralNevadaTestArea,https://www.lm.doe.gov/WorkArea/linkit.aspx?LinkIdentifier=id&ItemID=1376,13,38.634232,-116.216219,"Central Nevada Test Area, NV",CNT,NV,https://www.energy.gov/lm/central-nevada-test-area-cnta-nevada-site,Nevada Offsites,2.0,6318,,Y,Central Nevada Test Area,1603926315000,1614900658000,POINT (-12937130.321 4669413.050800003),7,8,8,2008,\NV\CentralNevadaTestArea,https://www.lm.doe.gov/WorkArea/linkit.aspx?LinkIdentifier=id&ItemID=1376,13,38.634232,-116.216219,"Central Nevada Test Area, NV",CNT,NV,https://www.energy.gov/lm/central-nevada-test-area-cnta-nevada-site,Nevada Offsites,2.0,6318,,Y,Central Nevada Test Area,1603926315000,1614900658000,POINT (-12937130.321 4669413.050800003),CNT,NV,0.47172746296512613,0.49350363339746106,0.48077107531037444,0.4800391294299922,0.49517653985586024
8,8,9,9,1996,\CO\DurangoDisposal,https://www.lm.doe.gov/WorkArea/linkit.aspx?LinkIdentifier=id&ItemID=942,16,37.248481,-107.903876,"Durango, CO, Disposal Site",DUD,CO,https://www.energy.gov/lm/durango-colorado-disposal-and-processing-sites,UMTRCA Title I,2.0,6318,,Y,Durango Disposal Site,1603926315000,1614899123000,POINT (-12011804.5309 4473798.660899997),8,9,9,1996,\CO\DurangoDisposal,https://www.lm.doe.gov/WorkArea/linkit.aspx?LinkIdentifier=id&ItemID=942,16,37.248481,-107.903876,"Durango, CO, Disposal Site",DUD,CO,https://www.energy.gov/lm/durango-colorado-disposal-and-processing-sites,UMTRCA Title I,2.0,6318,,Y,Durango Disposal Site,1603926315000,1614899123000,POINT (-12011804.5309 4473798.660899997),DUD,CO,1.3970614537356596,1.4289137761768367,1.4272434594300996,1.3951789070717417,1.4309973880796298
9,9,10,10,1996,\CO\DurangoProcessing,https://www.lm.doe.gov/WorkArea/linkit.aspx?LinkIdentifier=id&ItemID=942,15,37.26562,-107.884723,"Durango, CO, Processing Site",DUP,CO,https://www.energy.gov/lm/durango-colorado-disposal-and-processing-sites,UMTRCA Title I,2.0,102655,,Y,Durango Processing Site,1603926315000,1614899129000,POINT (-12009672.4287 4476195.744400002),9,10,10,1996,\CO\DurangoProcessing,https://www.lm.doe.gov/WorkArea/linkit.aspx?LinkIdentifier=id&ItemID=942,15,37.26562,-107.884723,"Durango, CO, Processing Site",DUP,CO,https://www.energy.gov/lm/durango-colorado-disposal-and-processing-sites,UMTRCA Title I,2.0,102655,,Y,Durango Processing Site,1603926315000,1614899129000,POINT (-12009672.4287 4476195.744400002),DUP,CO,1.2892610270292997,1.3186676511163278,1.317249173603449,1.2882794070119803,1.3213774341683677
10,10,11,11,1996,\SD\EdgemontDisposal,https://www.lm.doe.gov/WorkArea/linkit.aspx?LinkIdentifier=id&ItemID=1844,15,43.273539,-103.79423100000001,"Edgemont, SD, Disposal Site",EDG,SD,https://www.energy.gov/lm/edgemont-south-dakota-disposal-site,UMTRCA Title II,2.0,32035,,Y,Edgemont Disposal Site,1603926315000,1614901142000,POINT (-11554320.9422 5353700.3869),10,11,11,1996,\SD\EdgemontDisposal,https://www.lm.doe.gov/WorkArea/linkit.aspx?LinkIdentifier=id&ItemID=1844,15,43.273539,-103.79423100000001,"Edgemont, SD, Disposal Site",EDG,SD,https://www.energy.gov/lm/edgemont-south-dakota-disposal-site,UMTRCA Title II,2.0,32035,,Y,Edgemont Disposal Site,1603926315000,1614901142000,POINT (-11554320.9422 5353700.3869),EDG,SD,1.0866385175274575,1.1642389135557367,1.162961528562517,1.1632829847548372,1.1803346990397605
11,11,12,12,1997,\TX\FallsCityDisposal,https://www.lm.doe.gov/WorkArea/linkit.aspx?LinkIdentifier=id&ItemID=1856,16,28.905375,-98.132276,"Falls City, TX, Disposal Site",FCT,TX,https://www.energy.gov/lm/falls-city-texas-disposal-site,UMTRCA Title I,2.0,6318,,Y,Falls City Disposal Site,1603926315000,1614900665000,POINT (-10924034.9947 3363607.896600001),11,12,12,1997,\TX\FallsCityDisposal,https://www.lm.doe.gov/WorkArea/linkit.aspx?LinkIdentifier=id&ItemID=1856,16,28.905375,-98.132276,"Falls City, TX, Disposal Site",FCT,TX,https://www.energy.gov/lm/falls-city-texas-disposal-site,UMTRCA Title I,2.0,6318,,Y,Falls City Disposal Site,1603926315000,1614900665000,POINT (-10924034.9947 3363607.896600001),FCT,TX,1.9729693606807683,1.9651257708399963,1.9312357066039423,1.9052551807459515,1.9000919833218932
12,12,13,13,2008,\OH\FernaldPreserve,https://www.lm.doe.gov/WorkArea/linkit.aspx?LinkIdentifier=id&ItemID=7241,14,39.29945,-84.688331,"Fernald Preserve, OH, Site",FER,OH,https://www.energy.gov/lm/fernald-preserve-ohio-site,CERCLA/RCRA,3.0,3735,,Y,Fernald Preserve Site,1603926315000,1614900495000,POINT (-9427461.883099999 4764656.437100001),12,13,13,2008,\OH\FernaldPreserve,https://www.lm.doe.gov/WorkArea/linkit.aspx?LinkIdentifier=id&ItemID=7241,14,39.29945,-84.688331,"Fernald Preserve, OH, Site",FER,OH,https://www.energy.gov/lm/fernald-preserve-ohio-site,CERCLA/RCRA,3.0,3735,,Y,Fernald Preserve Site,1603926315000,1614900495000,POINT (-9427461.883099999 4764656.437100001),FER,OH,2.88887035294465,3.0450217118220495,3.0704721616162485,3.067193893258128,3.120941818834832
13,13,14,14,2002,\CO\GrandJunction,https://www.lm.doe.gov/WorkArea/linkit.aspx?LinkIdentifier=id&ItemID=948,16,39.043371,-108.573355,"Grand Junction, CO, Site",GJO,CO,https://www.energy.gov/lm/grand-junction-colorado-site,D&D,2.0,6428,,Y,Grand Junction Site,1603926315000,1614900499000,POINT (-12086330.5923 4727886.001599997),13,14,14,2002,\CO\GrandJunction,https://www.lm.doe.gov/WorkArea/linkit.aspx?LinkIdentifier=id&ItemID=948,16,39.043371,-108.573355,"Grand Junction, CO, Site",GJO,CO,https://www.energy.gov/lm/grand-junction-colorado-site,D&D,2.0,6428,,Y,Grand Junction Site,1603926315000,1614900499000,POINT (-12086330.5923 4727886.001599997),GJO,CO,0.6068430248108468,0.630326741576666,0.6268820708971767,0.6208989130987282,0.6300329531536301
14,14,15,15,1999,\CO\GrandJunctionProcessing,https://www.lm.doe.gov/WorkArea/linkit.aspx?LinkIdentifier=id&ItemID=960,16,39.055440999999995,-108.54925,"Grand Junction, CO, Processing Site",GJT,CO,https://www.energy.gov/lm/grand-junction-colorado-disposal-and-processing-sites,UMTRCA Title I,3.0,6318,,Y,Grand Junction Processing Site,1614035118000,1614900503000,POINT (-12083647.236 4729616.134300001),14,15,15,1999,\CO\GrandJunctionProcessing,https://www.lm.doe.gov/WorkArea/linkit.aspx?LinkIdentifier=id&ItemID=960,16,39.055440999999995,-108.54925,"Grand Junction, CO, Processing Site",GJT,CO,https://www.energy.gov/lm/grand-junction-colorado-disposal-and-processing-sites,UMTRCA Title I,3.0,6318,,Y,Grand Junction Processing Site,1614035118000,1614900503000,POINT (-12083647.236 4729616.134300001),GJT,CO,0.5840001674479416,0.6065053416410167,0.6031502297717336,0.5973266167491098,0.6059983975958064
15,15,16,16,2008,\NM\Gnome-Coach,https://www.lm.doe.gov/WorkArea/linkit.aspx?LinkIdentifier=id&ItemID=1513,15,32.263164,-103.866477,"Gnome-Coach, NM, Site",GNO,NM,https://www.energy.gov/lm/gnome-coach-new-mexico-site,Nevada Offsites,2.0,6318,,Y,Gnome-Coach Site,1603926315000,1614900506000,POINT (-11562363.3301 3797904.781000003),15,16,16,2008,\NM\Gnome-Coach,https://www.lm.doe.gov/WorkArea/linkit.aspx?LinkIdentifier=id&ItemID=1513,15,32.263164,-103.866477,"Gnome-Coach, NM, Site",GNO,NM,https://www.energy.gov/lm/gnome-coach-new-mexico-site,Nevada Offsites,2.0,6318,,Y,Gnome-Coach Site,1603926315000,1614900506000,POINT (-11562363.3301 3797904.781000003),GNO,NM,0.8563464152920071,0.8536526883996517,0.842691939414316,0.8322571715112606,0.8487729683933372
16,16,17,17,1999,\CO\GrandJunctionDisposal,https://www.lm.doe.gov/WorkArea/linkit.aspx?LinkIdentifier=id&ItemID=960,16,38.902364,-108.33821299999998,"Grand Junction, CO, Disposal Site",GRJ,CO,https://www.energy.gov/lm/grand-junction-colorado-disposal-and-processing-sites,UMTRCA Title I,3.0,26754,,Y,Grand Junction Disposal Site,1603926315000,1614900500000,POINT (-12060154.7046 4707695.687200002),16,17,17,1999,\CO\GrandJunctionDisposal,https://www.lm.doe.gov/WorkArea/linkit.aspx?LinkIdentifier=id&ItemID=960,16,38.902364,-108.33821299999998,"Grand Junction, CO, Disposal Site",GRJ,CO,https://www.energy.gov/lm/grand-junction-colorado-disposal-and-processing-sites,UMTRCA Title I,3.0,26754,,Y,Grand Junction Disposal Site,1603926315000,1614900500000,POINT (-12060154.7046 4707695.687200002),GRJ,CO,0.7711719231013247,0.7998244900339527,0.7959010323073481,0.7881105402393199,0.7992857474919026
17,17,18,18,1998,\UT\GreenRiverDisposal,https://www.lm.doe.gov/WorkArea/linkit.aspx?LinkIdentifier=id&ItemID=1866,17,38.978164,-110.136749,"Green River, UT, Disposal Site",GRN,UT,https://www.energy.gov/lm/green-river-utah-disposal-site,UMTRCA Title I,2.0,6318,,Y,Green River Disposal Site,1603926315000,1614899503000,POINT (-12260366.8163 4718544.235399999),17,18,18,1998,\UT\GreenRiverDisposal,https://www.lm.doe.gov/WorkArea/linkit.aspx?LinkIdentifier=id&ItemID=1866,17,38.978164,-110.136749,"Green River, UT, Disposal Site",GRN,UT,https://www.energy.gov/lm/green-river-utah-disposal-site,UMTRCA Title I,2.0,6318,,Y,Green River Disposal Site,1603926315000,1614899503000,POINT (-12260366.8163 4718544.235399999),GRN,UT,0.469143582660893,0.48649123755627016,0.4839840176895876,0.47898240479511556,0.48780168329532436
18,18,19,19,2008,\NM\Gasbuggy,https://www.lm.doe.gov/WorkArea/linkit.aspx?LinkIdentifier=id&ItemID=1500,15,36.677903,-107.208999,"Gasbuggy, NM, Site",GSB,NM,https://www.energy.gov/lm/gasbuggy-new-mexico-site,Nevada Offsites,2.0,6318,,Y,Gasbuggy Site,1614121512000,1614900508000,POINT (-11934451.1771 4394305.211300001),18,19,19,2008,\NM\Gasbuggy,https://www.lm.doe.gov/WorkArea/linkit.aspx?LinkIdentifier=id&ItemID=1500,15,36.677903,-107.208999,"Gasbuggy, NM, Site",GSB,NM,https://www.energy.gov/lm/gasbuggy-new-mexico-site,Nevada Offsites,2.0,6318,,Y,Gasbuggy Site,1614121512000,1614900508000,POINT (-11934451.1771 4394305.211300001),GSB,NM,1.0413737021216158,1.0576838824953425,1.0545521462730942,1.0285272889109849,1.0535489758307874
19,19,20,20,1997,\CO\GunnisonDisposal,https://www.lm.doe.gov/WorkArea/linkit.aspx?LinkIdentifier=id&ItemID=970,16,38.51014,-106.84638700000001,"Gunnison, CO, Disposal Site",GUD,CO,https://www.energy.gov/lm/gunnison-colorado-disposal-and-processing-sites,UMTRCA Title I,2.0,6318,,Y,Gunnison Disposal Site,1608159914000,1614899157000,POINT (-11894085.3939 4651744.268799998),19,20,20,1997,\CO\GunnisonDisposal,https://www.lm.doe.gov/WorkArea/linkit.aspx?LinkIdentifier=id&ItemID=970,16,38.51014,-106.84638700000001,"Gunnison, CO, Disposal Site",GUD,CO,https://www.energy.gov/lm/gunnison-colorado-disposal-and-processing-sites,UMTRCA Title I,2.0,6318,,Y,Gunnison Disposal Site,1608159914000,1614899157000,POINT (-11894085.3939 4651744.268799998),GUD,CO,0.7531236968004252,0.7778656750738168,0.7791072788948324,0.7702099914666255,0.7831921302993655
20,20,21,21,1997,\CO\GunnisonProcessing,https://www.lm.doe.gov/WorkArea/linkit.aspx?LinkIdentifier=id&ItemID=970,17,38.528258,-106.942532,"Gunnison, CO, Processing Site",GUP,CO,https://www.energy.gov/lm/gunnison-colorado-disposal-and-processing-sites,UMTRCA Title I,2.0,26754,,Y,Gunnison Processing Site,1603926315000,1614899156000,POINT (-11904788.2064 4654322.090599999),20,21,21,1997,\CO\GunnisonProcessing,https://www.lm.doe.gov/WorkArea/linkit.aspx?LinkIdentifier=id&ItemID=970,17,38.528258,-106.942532,"Gunnison, CO, Processing Site",GUP,CO,https://www.energy.gov/lm/gunnison-colorado-disposal-and-processing-sites,UMTRCA Title I,2.0,26754,,Y,Gunnison Processing Site,1603926315000,1614899156000,POINT (-11904788.2064 4654322.090599999),GUP,CO,0.6955495859529037,0.7180700049618881,0.7196093815009783,0.7109702726782107,0.7241853848446478
21,21,22,22,1998,\NE\HallamDecommissionedReactor,https://www.lm.doe.gov/WorkArea/linkit.aspx?LinkIdentifier=id&ItemID=1359,18,40.558519,-96.784697,"Hallam, NE, Decommissioned Reactor Site",HAL,NE,https://www.energy.gov/lm/hallam-nebraska-decommissioned-reactor-site,D&D,2.0,32006,,Y,Hallam Decommissioned Reactor Site,1603926315000,1614900667000,POINT (-10774023.1866 4947439.794100001),21,22,22,1998,\NE\HallamDecommissionedReactor,https://www.lm.doe.gov/WorkArea/linkit.aspx?LinkIdentifier=id&ItemID=1359,18,40.558519,-96.784697,"Hallam, NE, Decommissioned Reactor Site",HAL,NE,https://www.energy.gov/lm/hallam-nebraska-decommissioned-reactor-site,D&D,2.0,32006,,Y,Hallam Decommissioned Reactor Site,1603926315000,1614900667000,POINT (-10774023.1866 4947439.794100001),HAL,NE,2.0103935884240594,2.0943420189878648,2.0884732075346424,2.0529634109229944,2.1025238632609353
22,22,23,23,1997,\UT\MexicanHatDisposal,https://www.lm.doe.gov/WorkArea/linkit.aspx?LinkIdentifier=id&ItemID=1872,16,37.133607,-109.874549,"Mexican Hat, UT, Disposal Site",HAT,UT,https://www.energy.gov/lm/mexican-hat-utah-disposal-site,UMTRCA Title I,2.0,32044,,Y,Mexican Hat Disposal Site,1603926315000,1614900669000,POINT (-12231178.8458 4457746.278399996),22,23,23,1997,\UT\MexicanHatDisposal,https://www.lm.doe.gov/WorkArea/linkit.aspx?LinkIdentifier=id&ItemID=1872,16,37.133607,-109.874549,"Mexican Hat, UT, Disposal Site",HAT,UT,https://www.energy.gov/lm/mexican-hat-utah-disposal-site,UMTRCA Title I,2.0,32044,,Y,Mexican Hat Disposal Site,1603926315000,1614900669000,POINT (-12231178.8458 4457746.278399996),HAT,UT,0.4334358085738391,0.44255460566575416,0.44307614816910035,0.4294093096385698,0.4449278040331766
23,23,24,24,1995,\OR\LakeviewDisposal,https://www.lm.doe.gov/WorkArea/linkit.aspx?LinkIdentifier=id&ItemID=1776,16,42.285784,-120.433462,"Lakeview, OR, Disposal Site",LKD,OR,https://www.energy.gov/lm/lakeview-oregon-disposalprocessing-sites,UMTRCA Title I,2.0,32027,,Y,Lakeview Disposal Site,1603926315000,1614900646000,POINT (-13406591.6643 5203885.098399997),23,24,24,1995,\OR\LakeviewDisposal,https://www.lm.doe.gov/WorkArea/linkit.aspx?LinkIdentifier=id&ItemID=1776,16,42.285784,-120.433462,"Lakeview, OR, Disposal Site",LKD,OR,https://www.energy.gov/lm/lakeview-oregon-disposalprocessing-sites,UMTRCA Title I,2.0,32027,,Y,Lakeview Disposal Site,1603926315000,1614900646000,POINT (-13406591.6643 5203885.098399997),LKD,OR,0.9495091809055468,0.9831562570873738,0.9787597257332465,0.9706777848273208,0.9970970662641079
24,24,25,25,1995,\OR\LakeviewProcessing,https://www.lm.doe.gov/WorkArea/linkit.aspx?LinkIdentifier=id&ItemID=1776,15,42.21008,-120.36367,"Lakeview, OR, Processing Site",LKP,OR,https://www.energy.gov/lm/lakeview-oregon-disposalprocessing-sites,UMTRCA Title I,2.0,32027,,Y,Lakeview Processing Site,1603926315000,1614900644000,POINT (-13398822.4544 5192500.540600002),24,25,25,1995,\OR\LakeviewProcessing,https://www.lm.doe.gov/WorkArea/linkit.aspx?LinkIdentifier=id&ItemID=1776,15,42.21008,-120.36367,"Lakeview, OR, Processing Site",LKP,OR,https://www.energy.gov/lm/lakeview-oregon-disposalprocessing-sites,UMTRCA Title I,2.0,32027,,Y,Lakeview Processing Site,1603926315000,1614900644000,POINT (-13398822.4544 5192500.540600002),LKP,OR,1.0520564677660462,1.0894828574353286,1.0841759472412456,1.0763382779704773,1.1045397599233144
25,25,26,26,1994,\ID\LowmanDisposal,https://www.lm.doe.gov/WorkArea/linkit.aspx?LinkIdentifier=id&ItemID=1203,17,44.084790000000005,-115.60668899999999,"Lowman, ID, Disposal Site",LOW,ID,https://www.energy.gov/lm/lowman-idaho-disposal-site,UMTRCA Title I,2.0,6318,,Y,Lowman Disposal Site,1614639917000,1614900639000,POINT (-12869277.7518 5478573.0207),25,26,26,1994,\ID\LowmanDisposal,https://www.lm.doe.gov/WorkArea/linkit.aspx?LinkIdentifier=id&ItemID=1203,17,44.084790000000005,-115.60668899999999,"Lowman, ID, Disposal Site",LOW,ID,https://www.energy.gov/lm/lowman-idaho-disposal-site,UMTRCA Title I,2.0,6318,,Y,Lowman Disposal Site,1614639917000,1614900639000,POINT (-12869277.7518 5478573.0207),LOW,ID,1.8310060591797341,1.9430661804224345,1.9397984027664086,1.9568871533146135,1.9788327011194773
26,26,27,27,2010,\CO\MaybellWestDisposal,https://www.lm.doe.gov/WorkArea/linkit.aspx?LinkIdentifier=id&ItemID=6878,16,40.544556,-108.015615,"Maybell West, CO, Disposal Site",MAW,CO,https://www.energy.gov/lm/maybell-west-colorado-disposal-site,UMTRCA Title II,2.0,102653,,Y,Maybell West Disposal Site,1603926315000,1614900641000,POINT (-12024243.2595 4945394.1109),26,27,27,2010,\CO\MaybellWestDisposal,https://www.lm.doe.gov/WorkArea/linkit.aspx?LinkIdentifier=id&ItemID=6878,16,40.544556,-108.015615,"Maybell West, CO, Disposal Site",MAW,CO,https://www.energy.gov/lm/maybell-west-colorado-disposal-site,UMTRCA Title II,2.0,102653,,Y,Maybell West Disposal Site,1603926315000,1614900641000,POINT (-12024243.2595 4945394.1109),MAW,CO,0.9646106195240074,1.026392915674536,1.0185930244954355,1.0206740508054166,1.033359941922096
27,27,28,28,1999,\CO\MaybellDisposal,https://www.lm.doe.gov/WorkArea/linkit.aspx?LinkIdentifier=id&ItemID=977,16,40.543859000000005,-107.99287,"Maybell, CO, Disposal Site",MAY,CO,https://www.energy.gov/lm/maybell-colorado-disposal-site,UMTRCA Title I,2.0,26753,,Y,Maybell Disposal Site,1603926315000,1614900641000,POINT (-12021711.2977 4945292.006399997),27,28,28,1999,\CO\MaybellDisposal,https://www.lm.doe.gov/WorkArea/linkit.aspx?LinkIdentifier=id&ItemID=977,16,40.543859000000005,-107.99287,"Maybell, CO, Disposal Site",MAY,CO,https://www.energy.gov/lm/maybell-colorado-disposal-site,UMTRCA Title I,2.0,26753,,Y,Maybell Disposal Site,1603926315000,1614900641000,POINT (-12021711.2977 4945292.006399997),MAY,CO,0.9820360140565754,1.0446005433976175,1.03679930680881,1.0387580500893354,1.0517372596795929
28,28,29,29,2012,\OH\Mound,https://www.lm.doe.gov/WorkArea/linkit.aspx?LinkIdentifier=id&ItemID=594,15,39.627798999999996,-84.286025,"Mound, OH, Site",MND,OH,https://www.energy.gov/lm/mound-ohio-site,CERCLA/RCRA,3.0,3735,,Y,Mound Site,1603926315000,1614901104000,POINT (-9382677.384 4812001.545299999),28,29,29,2012,\OH\Mound,https://www.lm.doe.gov/WorkArea/linkit.aspx?LinkIdentifier=id&ItemID=594,15,39.627798999999996,-84.286025,"Mound, OH, Site",MND,OH,https://www.energy.gov/lm/mound-ohio-site,CERCLA/RCRA,3.0,3735,,Y,Mound Site,1603926315000,1614901104000,POINT (-9382677.384 4812001.545299999),MND,OH,2.7380334608096746,2.886214253537238,2.9130556045082754,2.9086963299282904,2.9570469127297945
29,29,30,30,2002,\UT\MonticelloDisposalandProcessing,https://www.lm.doe.gov/Monticello/Factsheet_-_Monticello.pdf,14,37.851103,-109.32521299999999,"Monticello, UT, Disposal and Processing Sites",MNT,UT,https://www.energy.gov/lm/monticello-utah-disposal-and-processing-sites,CERCLA/RCRA,3.0,6627,,Y,Monticello Disposal and Processing Sites,1603926315000,1614899194000,POINT (-12170027.042 4558412.961499996),29,30,30,2002,\UT\MonticelloDisposalandProcessing,https://www.lm.doe.gov/Monticello/Factsheet_-_Monticello.pdf,14,37.851103,-109.32521299999999,"Monticello, UT, Disposal and Processing Sites",MNT,UT,https://www.energy.gov/lm/monticello-utah-disposal-and-processing-sites,CERCLA/RCRA,3.0,6627,,Y,Monticello Disposal and Processing Sites,1603926315000,1614899194000,POINT (-12170027.042 4558412.961499996),MNT,UT,1.0732724226012837,1.1045438935244865,1.1076471378068975,1.0790082271980397,1.1172825822715358
30,30,31,31,1997,\AZ\MonumentValleyProcessing,https://www.lm.doe.gov/WorkArea/linkit.aspx?LinkIdentifier=id&ItemID=819,16,36.931242,-109.86651499999999,"Monument Valley, AZ, Processing Site",MON,AZ,https://www.energy.gov/lm/monument-valley-arizona-processing-site,UMTRCA Title I,2.0,-1,"PROJCS[""AZMON - NAD_1983_2011_StatePlane_Arizona_East_FIPS_0201_Ft"",GEOGCS[""GCS_NAD_1983_2011"",DATUM[""D_NAD_1983_2011"",SPHEROID[""GRS_1980"",6378137.0,298.257222101]],PRIMEM[""Greenwich"",0.0],UNIT[""Degree"",0.0174532925199433]],PROJECTION[""Transverse_Mercator""],PARAMETER[""False_Easting"",699998.6],PARAMETER[""False_Northing"",0.0],PARAMETER[""Central_Meridian"",-110.1666666666667],PARAMETER[""Scale_Factor"",0.9999],PARAMETER[""Latitude_Of_Origin"",31.0],UNIT[""Foot_US"",0.3048006096012192]]",Y,Monument Valley Processing Site,1603926315000,1614899465000,POINT (-12230284.505 4429527.1373),30,31,31,1997,\AZ\MonumentValleyProcessing,https://www.lm.doe.gov/WorkArea/linkit.aspx?LinkIdentifier=id&ItemID=819,16,36.931242,-109.86651499999999,"Monument Valley, AZ, Processing Site",MON,AZ,https://www.energy.gov/lm/monument-valley-arizona-processing-site,UMTRCA Title I,2.0,-1,"PROJCS[""AZMON - NAD_1983_2011_StatePlane_Arizona_East_FIPS_0201_Ft"",GEOGCS[""GCS_NAD_1983_2011"",DATUM[""D_NAD_1983_2011"",SPHEROID[""GRS_1980"",6378137.0,298.257222101]],PRIMEM[""Greenwich"",0.0],UNIT[""Degree"",0.0174532925199433]],PROJECTION[""Transverse_Mercator""],PARAMETER[""False_Easting"",699998.6],PARAMETER[""False_Northing"",0.0],PARAMETER[""Central_Meridian"",-110.1666666666667],PARAMETER[""Scale_Factor"",0.9999],PARAMETER[""Latitude_Of_Origin"",31.0],UNIT[""Foot_US"",0.3048006096012192]]",Y,Monument Valley Processing Site,1603926315000,1614899465000,POINT (-12230284.505 4429527.1373),MON,AZ,0.4038288335225713,0.4115461844316706,0.4123880733019139,0.39912611795579267,0.4139626381644082
31,31,32,32,1999,\CO\NaturitaDisposal,https://www.lm.doe.gov/WorkArea/linkit.aspx?LinkIdentifier=id&ItemID=981,17,38.360283,-108.75443,"Naturita, CO, Disposal Site",NAD,CO,https://www.energy.gov/lm/naturita-colorado-disposal-and-processing-sites,UMTRCA Title I,2.0,26755,,Y,Naturita Disposal Site,1603926315000,1614899145000,POINT (-12106487.7691 4630447.487099998),31,32,32,1999,\CO\NaturitaDisposal,https://www.lm.doe.gov/WorkArea/linkit.aspx?LinkIdentifier=id&ItemID=981,17,38.360283,-108.75443,"Naturita, CO, Disposal Site",NAD,CO,https://www.energy.gov/lm/naturita-colorado-disposal-and-processing-sites,UMTRCA Title I,2.0,26755,,Y,Naturita Disposal Site,1603926315000,1614899145000,POINT (-12106487.7691 4630447.487099998),NAD,CO,0.9258969384128639,0.9538400239936426,0.95392483349992,0.9374404593762983,0.9582784807033486
32,32,33,33,1999,\CO\NaturitaProcessing,https://www.lm.doe.gov/WorkArea/linkit.aspx?LinkIdentifier=id&ItemID=981,16,38.239805,-108.611094,"Naturita, CO, Processing Site",NAP,CO,https://www.energy.gov/lm/naturita-colorado-disposal-and-processing-sites,UMTRCA Title I,2.0,6318,,Y,Naturita Processing Site,1603926315000,1614899144000,POINT (-12090531.6786 4613357.824600004),32,33,33,1999,\CO\NaturitaProcessing,https://www.lm.doe.gov/WorkArea/linkit.aspx?LinkIdentifier=id&ItemID=981,16,38.239805,-108.611094,"Naturita, CO, Processing Site",NAP,CO,https://www.energy.gov/lm/naturita-colorado-disposal-and-processing-sites,UMTRCA Title I,2.0,6318,,Y,Naturita Processing Site,1603926315000,1614899144000,POINT (-12090531.6786 4613357.824600004),NAP,CO,0.8897804655394533,0.9150526289770223,0.9149617552696888,0.8983170364425608,0.9188263281411058
33,33,34,34,2004,\FL\PinellasCounty,https://www.lm.doe.gov/WorkArea/linkit.aspx?LinkIdentifier=id&ItemID=1152,16,27.874948,-82.749012,"Pinellas County, FL, Site",PIN,FL,https://www.energy.gov/lm/pinellas-county-florida-site,CERCLA/RCRA,3.0,6318,,Y,Pinellas County Site,1614899113000,1614900621000,POINT (-9211577.8795 3233216.722199999),33,34,34,2004,\FL\PinellasCounty,https://www.lm.doe.gov/WorkArea/linkit.aspx?LinkIdentifier=id&ItemID=1152,16,27.874948,-82.749012,"Pinellas County, FL, Site",PIN,FL,https://www.energy.gov/lm/pinellas-county-florida-site,CERCLA/RCRA,3.0,6318,,Y,Pinellas County Site,1614899113000,1614900621000,POINT (-9211577.8795 3233216.722199999),PIN,FL,3.5867251910531195,3.788011268207288,3.74662835816475,3.72448147632469,3.7205158445353748
34,34,35,35,1998,\OH\PiquaDecommissionedReactor,https://www.lm.doe.gov/WorkArea/linkit.aspx?LinkIdentifier=id&ItemID=1747,18,40.1319,-84.23461999999999,"Piqua, OH, Decommissioned Reactor Site",PIQ,OH,https://www.energy.gov/lm/piqua-ohio-decommissioned-reactor-site,D&D,2.0,3735,,Y,Piqua Decommissioned Reactor Site,1603926315000,1614901141000,POINT (-9376955.0056 4885128.181500003),34,35,35,1998,\OH\PiquaDecommissionedReactor,https://www.lm.doe.gov/WorkArea/linkit.aspx?LinkIdentifier=id&ItemID=1747,18,40.1319,-84.23461999999999,"Piqua, OH, Decommissioned Reactor Site",PIQ,OH,https://www.energy.gov/lm/piqua-ohio-decommissioned-reactor-site,D&D,2.0,3735,,Y,Piqua Decommissioned Reactor Site,1603926315000,1614901141000,POINT (-9376955.0056 4885128.181500003),PIQ,OH,2.6872290503628653,2.8305518689523255,2.8681300072268177,2.8590049538755187,2.9051767494201295
35,35,36,36,1994,\WV\ParkersburgDisposal,https://www.lm.doe.gov/WorkArea/linkit.aspx?LinkIdentifier=id&ItemID=1222,18,39.250115,-81.685817,"Parkersburg, WV, Disposal Site",PKB,WV,https://www.energy.gov/lm/parkersburg-west-virginia-disposal-site,NWPA,2.0,32050,,Y,Parkersburg Disposal Site,1603926315000,1614901105000,POINT (-9093223.5535 4757561.987599999),35,36,36,1994,\WV\ParkersburgDisposal,https://www.lm.doe.gov/WorkArea/linkit.aspx?LinkIdentifier=id&ItemID=1222,18,39.250115,-81.685817,"Parkersburg, WV, Disposal Site",PKB,WV,https://www.energy.gov/lm/parkersburg-west-virginia-disposal-site,NWPA,2.0,32050,,Y,Parkersburg Disposal Site,1603926315000,1614901105000,POINT (-9093223.5535 4757561.987599999),PKB,WV,2.7811263203797614,2.936346818364171,2.942225334907639,2.956920351146998,2.9924561105330443
36,36,37,37,2008,\CO\RioBlanco,https://www.lm.doe.gov/WorkArea/linkit.aspx?LinkIdentifier=id&ItemID=1006,15,39.793245,-108.367198,"Rio Blanco, CO, Site",RBL,CO,https://www.energy.gov/lm/rio-blanco-colorado-site,Nevada Offsites,2.0,26753,,Y,Rio Blanco Site,1603926315000,1614901107000,POINT (-12063381.3001 4835942.537100002),36,37,37,2008,\CO\RioBlanco,https://www.lm.doe.gov/WorkArea/linkit.aspx?LinkIdentifier=id&ItemID=1006,15,39.793245,-108.367198,"Rio Blanco, CO, Site",RBL,CO,https://www.energy.gov/lm/rio-blanco-colorado-site,Nevada Offsites,2.0,26753,,Y,Rio Blanco Site,1603926315000,1614901107000,POINT (-12063381.3001 4835942.537100002),RBL,CO,1.1123441394894533,1.1699641829491543,1.1626528721187261,1.1597445412375469,1.175115449501739
37,37,38,38,1998,\CO\RifleDisposal,https://www.lm.doe.gov/WorkArea/linkit.aspx?LinkIdentifier=id&ItemID=995,15,39.614434,-107.801258,"Rifle, CO, Disposal Site",RFL,CO,https://www.energy.gov/lm/rifle-colorado-disposal-site-and-processing-sites,UMTRCA Title I,2.0,6318,,Y,Rifle Disposal Site,1609801515000,1614899666000,POINT (-12000381.1474 4810070.055),37,38,38,1998,\CO\RifleDisposal,https://www.lm.doe.gov/WorkArea/linkit.aspx?LinkIdentifier=id&ItemID=995,15,39.614434,-107.801258,"Rifle, CO, Disposal Site",RFL,CO,https://www.energy.gov/lm/rifle-colorado-disposal-site-and-processing-sites,UMTRCA Title I,2.0,6318,,Y,Rifle Disposal Site,1609801515000,1614899666000,POINT (-12000381.1474 4810070.055),RFL,CO,1.0788506700789315,1.130028007297524,1.1232672263739663,1.1172302224409538,1.1331403073199908
38,38,39,39,1998,\CO\RifleNewProcessing,https://www.lm.doe.gov/WorkArea/linkit.aspx?LinkIdentifier=id&ItemID=995,16,39.524991,-107.81404199999999,"Rifle New, CO, Processing Site",RFN,CO,https://www.energy.gov/lm/rifle-colorado-disposal-site-and-processing-sites,UMTRCA Title I,2.0,6318,,Y,Rifle New Processing Site,1612307114000,1614899657000,POINT (-12001804.2558 4797153.468800001),38,39,39,1998,\CO\RifleNewProcessing,https://www.lm.doe.gov/WorkArea/linkit.aspx?LinkIdentifier=id&ItemID=995,16,39.524991,-107.81404199999999,"Rifle New, CO, Processing Site",RFN,CO,https://www.energy.gov/lm/rifle-colorado-disposal-site-and-processing-sites,UMTRCA Title I,2.0,6318,,Y,Rifle New Processing Site,1612307114000,1614899657000,POINT (-12001804.2558 4797153.468800001),RFN,CO,0.8532486249870479,0.8911768094549188,0.8865344126187413,0.8803181449114531,0.8938583968979111
39,39,40,40,1998,\CO\RifleOldProcessing,https://www.lm.doe.gov/WorkArea/linkit.aspx?LinkIdentifier=id&ItemID=995,16,39.529478999999995,-107.771654,"Rifle Old, CO, Processing Site",RFO,CO,https://www.energy.gov/lm/rifle-colorado-disposal-site-and-processing-sites,UMTRCA Title I,2.0,6318,,Y,Rifle Old Processing Site,1612307114000,1614899665000,POINT (-11997085.6452 4797801.190200001),39,40,40,1998,\CO\RifleOldProcessing,https://www.lm.doe.gov/WorkArea/linkit.aspx?LinkIdentifier=id&ItemID=995,16,39.529478999999995,-107.771654,"Rifle Old, CO, Processing Site",RFO,CO,https://www.energy.gov/lm/rifle-colorado-disposal-site-and-processing-sites,UMTRCA Title I,2.0,6318,,Y,Rifle Old Processing Site,1612307114000,1614899665000,POINT (-11997085.6452 4797801.190200001),RFO,CO,0.8447933135097888,0.8823912716329784,0.8777835367738512,0.871671451135084,0.8848225083404921
40,40,41,41,2008,\CO\RockyFlats,https://www.lm.doe.gov/WorkArea/linkit.aspx?LinkIdentifier=id&ItemID=2963,14,39.889868,-105.209222,"Rocky Flats, CO, Site",RFS,CO,https://www.energy.gov/lm/rocky-flats-site-colorado,CERCLA/RCRA,3.0,26754,,Y,Rocky Flats Site,1603926315000,1614899426000,POINT (-11711837.0198 4849951.0801),40,41,41,2008,\CO\RockyFlats,https://www.lm.doe.gov/WorkArea/linkit.aspx?LinkIdentifier=id&ItemID=2963,14,39.889868,-105.209222,"Rocky Flats, CO, Site",RFS,CO,https://www.energy.gov/lm/rocky-flats-site-colorado,CERCLA/RCRA,3.0,26754,,Y,Rocky Flats Site,1603926315000,1614899426000,POINT (-11711837.0198 4849951.0801),RFS,CO,1.0951932138725948,1.161897566072049,1.1600364316109335,1.1566747422430705,1.15663769206452
41,41,42,42,2008,\CO\Rulison,https://www.lm.doe.gov/WorkArea/linkit.aspx?LinkIdentifier=id&ItemID=1065,16,39.405291999999996,-107.948499,"Rulison, CO, Site",RUL,CO,https://www.energy.gov/lm/rulison-colorado-site,Nevada Offsites,2.0,26754,,Y,Rulison Site,1603926315000,1614901111000,POINT (-12016771.9406 4779893.5722),41,42,42,2008,\CO\Rulison,https://www.lm.doe.gov/WorkArea/linkit.aspx?LinkIdentifier=id&ItemID=1065,16,39.405291999999996,-107.948499,"Rulison, CO, Site",RUL,CO,https://www.energy.gov/lm/rulison-colorado-site,Nevada Offsites,2.0,26754,,Y,Rulison Site,1603926315000,1614901111000,POINT (-12016771.9406 4779893.5722),RUL,CO,1.8575713879727118,1.9491427061052007,1.9409469524497522,1.9326341534790428,1.9646661921061868
42,42,43,43,1991,\WY\RivertonProcessing,https://www.lm.doe.gov/WorkArea/linkit.aspx?LinkIdentifier=id&ItemID=1216,16,42.997679,-108.410329,"Riverton, WY, Processing Site",RVT,WY,https://www.energy.gov/lm/riverton-wyoming-processing-site,UMTRCA Title I,2.0,6318,,Y,Riverton Processing Site,1608159914000,1614899139000,POINT (-12068182.621 5311618.573799998),42,43,43,1991,\WY\RivertonProcessing,https://www.lm.doe.gov/WorkArea/linkit.aspx?LinkIdentifier=id&ItemID=1216,16,42.997679,-108.410329,"Riverton, WY, Processing Site",RVT,WY,https://www.energy.gov/lm/riverton-wyoming-processing-site,UMTRCA Title I,2.0,6318,,Y,Riverton Processing Site,1608159914000,1614899139000,POINT (-12068182.621 5311618.573799998),RVT,WY,0.558208478173583,0.610858104833011,0.6095412109429394,0.6130751257455329,0.6191648097170556
43,43,44,44,2008,\MS\Salmon,https://www.lm.doe.gov/WorkArea/linkit.aspx?LinkIdentifier=id&ItemID=1325,15,31.142284999999998,-89.570012,"Salmon, MS, Site",SAL,MS,https://www.energy.gov/lm/salmon-mississippi-site,Nevada Offsites,2.0,26794,,Y,Salmon Site,1603926315000,1614901132000,POINT (-9970888.1262 3651241.3781),43,44,44,2008,\MS\Salmon,https://www.lm.doe.gov/WorkArea/linkit.aspx?LinkIdentifier=id&ItemID=1325,15,31.142284999999998,-89.570012,"Salmon, MS, Site",SAL,MS,https://www.energy.gov/lm/salmon-mississippi-site,Nevada Offsites,2.0,26794,,Y,Salmon Site,1603926315000,1614901132000,POINT (-9970888.1262 3651241.3781),SAL,MS,4.239940175466472,4.387127337008194,4.330116758547832,4.284751246566574,4.303352067855736
44,44,45,45,1998,\IL\SiteAPlotMDecommissionedReactor,https://www.lm.doe.gov/WorkArea/linkit.aspx?LinkIdentifier=id&ItemID=1279,16,41.705321000000005,-87.91090799999999,"Site A / Plot M, IL, Decommissioned Reactor Site",SAM,IL,https://www.energy.gov/lm/site-aplot-m-illinois-decommissioned-reactor-site,D&D,2.0,102671,,Y,Site A / Plot M Decommissioned Reactor Site,1603926315000,1614901140000,POINT (-9786197.513699999 5116939.658100002),44,45,45,1998,\IL\SiteAPlotMDecommissionedReactor,https://www.lm.doe.gov/WorkArea/linkit.aspx?LinkIdentifier=id&ItemID=1279,16,41.705321000000005,-87.91090799999999,"Site A / Plot M, IL, Decommissioned Reactor Site",SAM,IL,https://www.energy.gov/lm/site-aplot-m-illinois-decommissioned-reactor-site,D&D,2.0,102671,,Y,Site A / Plot M Decommissioned Reactor Site,1603926315000,1614901140000,POINT (-9786197.513699999 5116939.658100002),SAM,IL,2.5432255605664977,2.675595488758421,2.7117580734332654,2.6758614530526175,2.7505826294803595
45,45,46,46,2005,\WY\ShirleyBasinSouthDisposal,https://www.lm.doe.gov/WorkArea/linkit.aspx?LinkIdentifier=id&ItemID=1212,14,42.335322999999995,-106.196273,"Shirley Basin South, WY, Disposal Site",SBS,WY,https://www.energy.gov/lm/shirley-basin-south-wyoming-disposal-site,UMTRCA Title II,2.0,-1,,Y,Shirley Basin South Disposal Site,1614899113000,1614900636000,POINT (-11821715.0345 5211342.304200001),45,46,46,2005,\WY\ShirleyBasinSouthDisposal,https://www.lm.doe.gov/WorkArea/linkit.aspx?LinkIdentifier=id&ItemID=1212,14,42.335322999999995,-106.196273,"Shirley Basin South, WY, Disposal Site",SBS,WY,https://www.energy.gov/lm/shirley-basin-south-wyoming-disposal-site,UMTRCA Title II,2.0,-1,,Y,Shirley Basin South Disposal Site,1614899113000,1614900636000,POINT (-11821715.0345 5211342.304200001),SBS,WY,0.8163041176625744,0.8852458088361519,0.8806165891849347,0.8834533795263578,0.8954729353601888
46,46,47,47,2001,\WA\SherwoodDisposal,https://www.lm.doe.gov/WorkArea/linkit.aspx?LinkIdentifier=id&ItemID=1226,15,47.876183000000005,-118.10618799999999,"Sherwood, WA, Disposal Site",SHE,WA,https://www.energy.gov/lm/sherwood-washington-disposal-site,UMTRCA Title II,2.0,6318,,Y,Sherwood Disposal Site,1612825516000,1614900637000,POINT (-13147520.7077 6086280.761399999),46,47,47,2001,\WA\SherwoodDisposal,https://www.lm.doe.gov/WorkArea/linkit.aspx?LinkIdentifier=id&ItemID=1226,15,47.876183000000005,-118.10618799999999,"Sherwood, WA, Disposal Site",SHE,WA,https://www.energy.gov/lm/sherwood-washington-disposal-site,UMTRCA Title II,2.0,6318,,Y,Sherwood Disposal Site,1612825516000,1614900637000,POINT (-13147520.7077 6086280.761399999),SHE,WA,1.0403533866013146,1.1000483559984515,1.103847590725986,1.1084187136765784,1.1123425799617488
47,47,48,48,2008,\NV\Shoal,https://www.lm.doe.gov/WorkArea/linkit.aspx?LinkIdentifier=id&ItemID=1379,14,39.200093,-118.381229,"Shoal, NV, Site",SHL,NV,https://www.energy.gov/lm/shoal-nevada-site,Nevada Offsites,2.0,32009,,Y,Shoal Site,1603926315000,1614900639000,POINT (-13178138.1318 4750373.840400003),47,48,48,2008,\NV\Shoal,https://www.lm.doe.gov/WorkArea/linkit.aspx?LinkIdentifier=id&ItemID=1379,14,39.200093,-118.381229,"Shoal, NV, Site",SHL,NV,https://www.energy.gov/lm/shoal-nevada-site,Nevada Offsites,2.0,32009,,Y,Shoal Site,1603926315000,1614900639000,POINT (-13178138.1318 4750373.840400003),SHL,NV,0.5855648581700734,0.6135345089689431,0.596837252190566,0.5981339643516007,0.6113973111680141
48,48,49,49,1996,\NM\ShiprockDisposal,https://www.lm.doe.gov/WorkArea/linkit.aspx?LinkIdentifier=id&ItemID=1527,16,36.770014,-108.684297,"Shiprock, NM, Disposal Site",SHP,NM,https://www.energy.gov/lm/shiprock-new-mexico-disposal-site,UMTRCA Title I,3.0,32014,,Y,Shiprock Disposal Site,1603926315000,1614899498000,POINT (-12098680.5993 4407098.004199997),48,49,49,1996,\NM\ShiprockDisposal,https://www.lm.doe.gov/WorkArea/linkit.aspx?LinkIdentifier=id&ItemID=1527,16,36.770014,-108.684297,"Shiprock, NM, Disposal Site",SHP,NM,https://www.energy.gov/lm/shiprock-new-mexico-disposal-site,UMTRCA Title I,3.0,32014,,Y,Shiprock Disposal Site,1603926315000,1614899498000,POINT (-12098680.5993 4407098.004199997),SHP,NM,0.4822885013157117,0.49055738811070926,0.48992053199420277,0.47412440776449155,0.4907588306466889
49,49,50,50,1997,\UT\SaltLakeCityDisposal,https://www.lm.doe.gov/Salt_Lake/Fact_Sheet_SLC_Processing_and_Disposal_Sites.pdf,15,40.690666,-113.11143700000001,"Salt Lake City, UT, Disposal Site",SLD,UT,https://www.energy.gov/lm/salt-lake-city-utah-disposal-and-processing-sites,UMTRCA Title I,2.0,32043,,Y,Salt Lake City Disposal Site,1603926315000,1614900634000,POINT (-12591507.5697 4966821.482600003),49,50,50,1997,\UT\SaltLakeCityDisposal,https://www.lm.doe.gov/Salt_Lake/Fact_Sheet_SLC_Processing_and_Disposal_Sites.pdf,15,40.690666,-113.11143700000001,"Salt Lake City, UT, Disposal Site",SLD,UT,https://www.energy.gov/lm/salt-lake-city-utah-disposal-and-processing-sites,UMTRCA Title I,2.0,32043,,Y,Salt Lake City Disposal Site,1603926315000,1614900634000,POINT (-12591507.5697 4966821.482600003),SLD,UT,0.5914969083473157,0.6336841423770703,0.6212822617774865,0.6300685064393582,0.6349952559619542
50,50,51,51,1997,\UT\SaltLakeCityProcessing,https://www.lm.doe.gov/Salt_Lake/Fact_Sheet_SLC_Processing_and_Disposal_Sites.pdf,16,40.702191,-111.91146200000001,"Salt Lake City, UT, Processing Site",SLP,UT,https://www.energy.gov/lm/salt-lake-city-utah-disposal-and-processing-sites,UMTRCA Title I,2.0,32043,,Y,Salt Lake City Processing Site,1603926315000,1614900633000,POINT (-12457926.9638 4968513.647600003),50,51,51,1997,\UT\SaltLakeCityProcessing,https://www.lm.doe.gov/Salt_Lake/Fact_Sheet_SLC_Processing_and_Disposal_Sites.pdf,16,40.702191,-111.91146200000001,"Salt Lake City, UT, Processing Site",SLP,UT,https://www.energy.gov/lm/salt-lake-city-utah-disposal-and-processing-sites,UMTRCA Title I,2.0,32043,,Y,Salt Lake City Processing Site,1603926315000,1614900633000,POINT (-12457926.9638 4968513.647600003),SLP,UT,0.9493179842918055,1.0076811145947742,0.9905746233500318,1.0012808225063905,1.0070526912270308
51,51,52,52,1993,\WY\SpookDisposal,https://www.lm.doe.gov/WorkArea/linkit.aspx?LinkIdentifier=id&ItemID=1206,16,43.238852,-105.622524,"Spook, WY, Disposal Site",SPK,WY,https://www.energy.gov/lm/spook-wyoming-disposal-site,UMTRCA Title I,2.0,32055,,Y,Spook Disposal Site,1603926315000,1614900635000,POINT (-11757845.588 5348398.511399999),51,52,52,1993,\WY\SpookDisposal,https://www.lm.doe.gov/WorkArea/linkit.aspx?LinkIdentifier=id&ItemID=1206,16,43.238852,-105.622524,"Spook, WY, Disposal Site",SPK,WY,https://www.energy.gov/lm/spook-wyoming-disposal-site,UMTRCA Title I,2.0,32055,,Y,Spook Disposal Site,1603926315000,1614900635000,POINT (-11757845.588 5348398.511399999),SPK,WY,0.7961437957094729,0.8661162100616685,0.8653685781551913,0.8672204573602048,0.8822546847171752
52,52,53,53,1998,\CO\SlickRockDisposal,https://www.lm.doe.gov/WorkArea/linkit.aspx?LinkIdentifier=id&ItemID=1100,16,38.054538,-108.864253,"Slick Rock, CO, Disposal Site",SRD,CO,https://www.energy.gov/lm/slick-rock-colorado-disposal-and-processing-sites,UMTRCA Title I,2.0,6318,,Y,Slick Rock Disposal Site,1603926315000,1614900651000,POINT (-12118713.2096 4587133.070500001),52,53,53,1998,\CO\SlickRockDisposal,https://www.lm.doe.gov/WorkArea/linkit.aspx?LinkIdentifier=id&ItemID=1100,16,38.054538,-108.864253,"Slick Rock, CO, Disposal Site",SRD,CO,https://www.energy.gov/lm/slick-rock-colorado-disposal-and-processing-sites,UMTRCA Title I,2.0,6318,,Y,Slick Rock Disposal Site,1603926315000,1614900651000,POINT (-12118713.2096 4587133.070500001),SRD,CO,0.8533759348763071,0.8770672658082479,0.8773940716464688,0.859536805264144,0.8813372575148489
53,53,54,54,1998,\CO\SlickRockEastProcessing,https://www.lm.doe.gov/WorkArea/linkit.aspx?LinkIdentifier=id&ItemID=1100,16,38.043158,-108.89452800000001,"Slick Rock East, CO, Processing Site",SRE,CO,https://www.energy.gov/lm/slick-rock-colorado-disposal-and-processing-sites,UMTRCA Title I,2.0,26755,,Y,Slick Rock East Processing Site,1603926315000,1614900656000,POINT (-12122083.4071 4585524.386100002),53,54,54,1998,\CO\SlickRockEastProcessing,https://www.lm.doe.gov/WorkArea/linkit.aspx?LinkIdentifier=id&ItemID=1100,16,38.043158,-108.89452800000001,"Slick Rock East, CO, Processing Site",SRE,CO,https://www.energy.gov/lm/slick-rock-colorado-disposal-and-processing-sites,UMTRCA Title I,2.0,26755,,Y,Slick Rock East Processing Site,1603926315000,1614900656000,POINT (-12122083.4071 4585524.386100002),SRE,CO,0.8903321419308797,0.9151767690417864,0.9152244944956731,0.8963499725975085,0.9189687351921593
54,54,55,55,1998,\CO\SlickRockWestProcessing,https://www.lm.doe.gov/WorkArea/linkit.aspx?LinkIdentifier=id&ItemID=1100,16,38.045815999999995,-108.909424,"Slick Rock West, CO, Processing Site",SRW,CO,https://www.energy.gov/lm/slick-rock-colorado-disposal-and-processing-sites,UMTRCA Title I,2.0,6318,,Y,Slick Rock West Processing Site,1603926315000,1614900654000,POINT (-12123741.6223 4585900.100400001),54,55,55,1998,\CO\SlickRockWestProcessing,https://www.lm.doe.gov/WorkArea/linkit.aspx?LinkIdentifier=id&ItemID=1100,16,38.045815999999995,-108.909424,"Slick Rock West, CO, Processing Site",SRW,CO,https://www.energy.gov/lm/slick-rock-colorado-disposal-and-processing-sites,UMTRCA Title I,2.0,6318,,Y,Slick Rock West Processing Site,1603926315000,1614900654000,POINT (-12123741.6223 4585900.100400001),SRW,CO,0.9309979442897591,0.9571596301399001,0.9572957914295988,0.9374619321514477,0.961724780253017
55,55,56,56,1996,\AZ\TubaCityDisposal,https://www.lm.doe.gov/WorkArea/linkit.aspx?LinkIdentifier=id&ItemID=849,16,36.145483,-111.13479299999999,"Tuba City, AZ, Disposal Site",TUB,AZ,https://www.energy.gov/lm/tuba-city-arizona-disposal-site,UMTRCA Title I,3.0,26749,,Y,Tuba City Disposal Site,1603926315000,1614899457000,POINT (-12371468.5662 4320658.117700003),55,56,56,1996,\AZ\TubaCityDisposal,https://www.lm.doe.gov/WorkArea/linkit.aspx?LinkIdentifier=id&ItemID=849,16,36.145483,-111.13479299999999,"Tuba City, AZ, Disposal Site",TUB,AZ,https://www.energy.gov/lm/tuba-city-arizona-disposal-site,UMTRCA Title I,3.0,26749,,Y,Tuba City Disposal Site,1603926315000,1614899457000,POINT (-12371468.5662 4320658.117700003),TUB,AZ,0.4595421512687738,0.465706371781554,0.4638468181838107,0.44939723932299225,0.464392150276213
56,56,57,57,2003,\MO\WeldonSpring,https://www.lm.doe.gov/WorkArea/linkit.aspx?LinkIdentifier=id&ItemID=1347,13,38.698168,-90.728274,"Weldon Spring, MO, Site",WEL,MO,https://www.energy.gov/lm/weldon-spring-missouri-site,CERCLA/RCRA,3.0,102696,,Y,Weldon Spring Site,1603926315000,1614899643000,POINT (-10099825.2622 4678528.486100003),56,57,57,2003,\MO\WeldonSpring,https://www.lm.doe.gov/WorkArea/linkit.aspx?LinkIdentifier=id&ItemID=1347,13,38.698168,-90.728274,"Weldon Spring, MO, Site",WEL,MO,https://www.energy.gov/lm/weldon-spring-missouri-site,CERCLA/RCRA,3.0,102696,,Y,Weldon Spring Site,1603926315000,1614899643000,POINT (-10099825.2622 4678528.486100003),WEL,MO,2.6580491870975362,2.7638278669675196,2.794217910025296,2.7455049252045898,2.828359633589416
57,57,58,58,2007,\NJ\Wayne,https://www.lm.doe.gov/WorkArea/linkit.aspx?LinkIdentifier=id&ItemID=2606,18,40.969809999999995,-74.27027,"Wayne, NJ, Site",WYN,NJ,https://www.energy.gov/lm/wayne-new-jersey-site,FUSRAP,1.0,32011,,Y,Wayne Site,1603926315000,1614901108000,POINT (-8267728.637499999 5007889.665100001),57,58,58,2007,\NJ\Wayne,https://www.lm.doe.gov/WorkArea/linkit.aspx?LinkIdentifier=id&ItemID=2606,18,40.969809999999995,-74.27027,"Wayne, NJ, Site",WYN,NJ,https://www.energy.gov/lm/wayne-new-jersey-site,FUSRAP,1.0,32011,,Y,Wayne Site,1603926315000,1614901108000,POINT (-8267728.637499999 5007889.665100001),WYN,NJ,3.390502970354906,3.626097933041858,3.653636674658009,3.687981459927656,3.7132384177505413
58,58,59,59,1996,\MI\Adrian,https://www.lm.doe.gov/WorkArea/linkit.aspx?LinkIdentifier=id&ItemID=2091,14,41.887939,-84.01469200000001,"Adrian, MI, Site",ADR,MI,https://www.energy.gov/lm/adrian-michigan-site,FUSRAP,1.0,-1,,Y,Adrian Site,1614899113000,1614901141000,POINT (-9352472.7326 5144208.002300002),58,59,59,1996,\MI\Adrian,https://www.lm.doe.gov/WorkArea/linkit.aspx?LinkIdentifier=id&ItemID=2091,14,41.887939,-84.01469200000001,"Adrian, MI, Site",ADR,MI,https://www.energy.gov/lm/adrian-michigan-site,FUSRAP,1.0,-1,,Y,Adrian Site,1614899113000,1614901141000,POINT (-9352472.7326 5144208.002300002),ADR,MI,2.390379995735462,2.525217159246553,2.5524773915094556,2.545710376162265,2.5895313687369903
59,59,60,60,1997,\PA\Aliquippa,https://www.lm.doe.gov/WorkArea/linkit.aspx?LinkIdentifier=id&ItemID=1792,14,40.642126,-80.24396800000001,"Aliquippa, PA, Site",ALP,PA,https://www.energy.gov/lm/aliquippa-pennsylvania-site,FUSRAP,1.0,-1,,Y,Aliquippa Site,1614899113000,1614901141000,POINT (-8932717.657 4959697.778200001),59,60,60,1997,\PA\Aliquippa,https://www.lm.doe.gov/WorkArea/linkit.aspx?LinkIdentifier=id&ItemID=1792,14,40.642126,-80.24396800000001,"Aliquippa, PA, Site",ALP,PA,https://www.energy.gov/lm/aliquippa-pennsylvania-site,FUSRAP,1.0,-1,,Y,Aliquippa Site,1614899113000,1614901141000,POINT (-8932717.657 4959697.778200001),ALP,PA,2.575229848298477,2.7166234591277316,2.725978607981852,2.748718506336445,2.7728607170153756
60,60,61,61,1993,\OR\Albany,https://www.lm.doe.gov/WorkArea/linkit.aspx?LinkIdentifier=id&ItemID=1760,14,44.62021,-123.1208,"Albany, OR, Site",AOR,OR,https://www.energy.gov//lm/albany-oregon-site,FUSRAP,1.0,-1,,Y,Albany Site,1614899113000,1614901141000,POINT (-13705744.7621 5561928.180100001),60,61,61,1993,\OR\Albany,https://www.lm.doe.gov/WorkArea/linkit.aspx?LinkIdentifier=id&ItemID=1760,14,44.62021,-123.1208,"Albany, OR, Site",AOR,OR,https://www.energy.gov//lm/albany-oregon-site,FUSRAP,1.0,-1,,Y,Albany Site,1614899113000,1614901141000,POINT (-13705744.7621 5561928.180100001),AOR,OR,2.8962603971162286,2.944363587438931,2.935852409207152,2.951493870739099,2.939288992555258
61,61,62,62,1985,\NM\AcidPuebloCanyon,https://www.lm.doe.gov/WorkArea/linkit.aspx?LinkIdentifier=id&ItemID=1469,14,35.884409999999995,-106.30667,"Acid/Pueblo Canyon, NM, Site",APC,NM,https://www.energy.gov/lm/acidpueblo-canyon-new-mexico-site,FUSRAP,1.0,-1,,Y,Acid/Pueblo Canyon Site,1614899113000,1614901141000,POINT (-11834004.3723 4284728.000500001),61,62,62,1985,\NM\AcidPuebloCanyon,https://www.lm.doe.gov/WorkArea/linkit.aspx?LinkIdentifier=id&ItemID=1469,14,35.884409999999995,-106.30667,"Acid/Pueblo Canyon, NM, Site",APC,NM,https://www.energy.gov/lm/acidpueblo-canyon-new-mexico-site,FUSRAP,1.0,-1,,Y,Acid/Pueblo Canyon Site,1614899113000,1614901141000,POINT (-11834004.3723 4284728.000500001),APC,NM,1.1759593645040565,1.1837872588930236,1.1806945708659886,1.1435799499908017,1.172817265754194
62,62,63,63,1984,\NM\BayoCanyon,https://www.energy.gov/sites/prod/files/2020/05/f74/BayoCanyonFactSheet.pdf,14,35.88755,-106.24656999999999,"Bayo Canyon, NM, Site",BAY,NM,https://www.energy.gov/lm/bayo-canyon-new-mexico-aggregate-area-and-fusrap-sites,FUSRAP,2.0,-1,,Y,Bayo Canyon Site,1614899113000,1614901141000,POINT (-11827314.0709 4285159.436700001),62,63,63,1984,\NM\BayoCanyon,https://www.energy.gov/sites/prod/files/2020/05/f74/BayoCanyonFactSheet.pdf,14,35.88755,-106.24656999999999,"Bayo Canyon, NM, Site",BAY,NM,https://www.energy.gov/lm/bayo-canyon-new-mexico-aggregate-area-and-fusrap-sites,FUSRAP,2.0,-1,,Y,Bayo Canyon Site,1614899113000,1614901141000,POINT (-11827314.0709 4285159.436700001),BAY,NM,1.0669585579372713,1.0746559859592495,1.071323345298724,1.0383082146213285,1.0638751734965828
63,63,64,64,1985,\CA\Berkeley,https://www.lm.doe.gov/WorkArea/linkit.aspx?LinkIdentifier=id&ItemID=733,14,37.87263,-122.25628999999999,"Berkeley, CA, Site",BCA,CA,https://www.energy.gov/lm/berkeley-california-site,FUSRAP,1.0,-1,,Y,Berkeley Site,1614899113000,1614901141000,POINT (-13609507.9491 4561448.2962),63,64,64,1985,\CA\Berkeley,https://www.lm.doe.gov/WorkArea/linkit.aspx?LinkIdentifier=id&ItemID=733,14,37.87263,-122.25628999999999,"Berkeley, CA, Site",BCA,CA,https://www.energy.gov/lm/berkeley-california-site,FUSRAP,1.0,-1,,Y,Berkeley Site,1614899113000,1614901141000,POINT (-13609507.9491 4561448.2962),BCA,CA,1.8191972562714145,1.8659479757912594,1.8481395003583598,1.8133514548802598,1.8799184862550744
64,64,65,65,2004,\MA\Beverly,https://www.lm.doe.gov/WorkArea/linkit.aspx?LinkIdentifier=id&ItemID=2165,14,42.540420000000005,-70.88861999999999,"Beverly, MA, Site",BEV,MA,https://www.energy.gov/lm/beverly-massachusetts-site,FUSRAP,1.0,-1,,Y,Beverly Site,1614899113000,1614901141000,POINT (-7891285.0814 5242278.663199998),64,65,65,2004,\MA\Beverly,https://www.lm.doe.gov/WorkArea/linkit.aspx?LinkIdentifier=id&ItemID=2165,14,42.540420000000005,-70.88861999999999,"Beverly, MA, Site",BEV,MA,https://www.energy.gov/lm/beverly-massachusetts-site,FUSRAP,1.0,-1,,Y,Beverly Site,1614899113000,1614901141000,POINT (-7891285.0814 5242278.663199998),BEV,MA,3.134656531645825,3.345217049168918,3.3811943586036426,3.400459388246824,3.456774922604846
65,65,66,66,2015,\CA\BurrisPark,https://www.lm.doe.gov/BurrisPark/Factsheet.pdf,14,36.45029,-119.57535,"Burris Park, CA, Site",BRP,CA,https://www.energy.gov/lm/burris-park-california-site,MED/AEC Legacy Site,2.0,-1,,Y,Burris Park Site,1614899113000,1614901142000,POINT (-13311067.0734 4362758.791599996),65,66,66,2015,\CA\BurrisPark,https://www.lm.doe.gov/BurrisPark/Factsheet.pdf,14,36.45029,-119.57535,"Burris Park, CA, Site",BRP,CA,https://www.energy.gov/lm/burris-park-california-site,MED/AEC Legacy Site,2.0,-1,,Y,Burris Park Site,1614899113000,1614901142000,POINT (-13311067.0734 4362758.791599996),BRP,CA,0.6640498724858089,0.6778874079674884,0.6586305068365018,0.6515652540269428,0.6673055191144571
66,66,67,67,2002,\NY\Buffalo,https://www.lm.doe.gov/WorkArea/linkit.aspx?LinkIdentifier=id&ItemID=2196,14,42.840990000000005,-78.83386,"Buffalo, NY, Site",BUF,NY,https://www.energy.gov/lm/buffalo-new-york-site,FUSRAP,1.0,2262,,Y,Buffalo Site,1603926315000,1614901142000,POINT (-8775745.1525 5287800.136799999),66,67,67,2002,\NY\Buffalo,https://www.lm.doe.gov/WorkArea/linkit.aspx?LinkIdentifier=id&ItemID=2196,14,42.840990000000005,-78.83386,"Buffalo, NY, Site",BUF,NY,https://www.energy.gov/lm/buffalo-new-york-site,FUSRAP,1.0,2262,,Y,Buffalo Site,1603926315000,1614901142000,POINT (-8775745.1525 5287800.136799999),BUF,NY,2.666617115547914,2.8208939774869695,2.83875898283131,2.843725242765937,2.8731151800844175
67,67,68,68,1986,\NM\ChupaderaMesa,https://www.lm.doe.gov/WorkArea/linkit.aspx?LinkIdentifier=id&ItemID=1494,14,34.09813,-106.20924,"Chupadera Mesa, NM, Site",CHM,NM,https://www.energy.gov/lm/chupadera-mesa-new-mexico-site,FUSRAP,1.0,-1,,Y,Chupadera Mesa Site,1614899113000,1614901141000,POINT (-11823158.5143 4041986.110799998),67,68,68,1986,\NM\ChupaderaMesa,https://www.lm.doe.gov/WorkArea/linkit.aspx?LinkIdentifier=id&ItemID=1494,14,34.09813,-106.20924,"Chupadera Mesa, NM, Site",CHM,NM,https://www.energy.gov/lm/chupadera-mesa-new-mexico-site,FUSRAP,1.0,-1,,Y,Chupadera Mesa Site,1614899113000,1614901141000,POINT (-11823158.5143 4041986.110799998),CHM,NM,0.9758987840281667,0.9752684030261546,0.9718822391732829,0.9335781436172337,0.965047880194145
68,68,69,69,1989,\IL\ChicagoNorth,https://www.lm.doe.gov/Chicago_North/factsheet.pdf,14,41.799395000000004,-87.60696899999999,"Chicago North, IL, Site",CHN,IL,https://www.energy.gov/lm/chicago-north-illinois-site,FUSRAP,1.0,-1,,Y,Chicago North Site,1614899113000,1614901141000,POINT (-9752363.179 5130976.9934),68,69,69,1989,\IL\ChicagoNorth,https://www.lm.doe.gov/Chicago_North/factsheet.pdf,14,41.799395000000004,-87.60696899999999,"Chicago North, IL, Site",CHN,IL,https://www.energy.gov/lm/chicago-north-illinois-site,FUSRAP,1.0,-1,,Y,Chicago North Site,1614899113000,1614901141000,POINT (-9752363.179 5130976.9934),CHN,IL,2.53188295520366,2.6675925068241453,2.703161607542883,2.671771829912533,2.7450121640403595
69,69,70,70,1989,\IL\ChicagoSouth,https://www.lm.doe.gov/WorkArea/linkit.aspx?LinkIdentifier=id&ItemID=1239,14,41.790408,-87.599677,"Chicago South, IL, Site",CHS,IL,https://www.energy.gov/lm/chicago-south-illinois-site,FUSRAP,1.0,-1,,Y,Chicago South Site,1614899113000,1614901141000,POINT (-9751551.4373 5129635.100900002),69,70,70,1989,\IL\ChicagoSouth,https://www.lm.doe.gov/WorkArea/linkit.aspx?LinkIdentifier=id&ItemID=1239,14,41.790408,-87.599677,"Chicago South, IL, Site",CHS,IL,https://www.energy.gov/lm/chicago-south-illinois-site,FUSRAP,1.0,-1,,Y,Chicago South Site,1614899113000,1614901141000,POINT (-9751551.4373 5129635.100900002),CHS,IL,2.533756506779485,2.6694485569525104,2.7051536709087545,2.673754686978274,2.747007376750302
70,70,71,71,2001,\OH\ColumbusEast,https://www.lm.doe.gov/Columbus_East/factsheet.pdf,14,39.95694,-83.01174,"Columbus East, OH, Site",COE,OH,https://www.energy.gov/lm/columbus-east-ohio-site,FUSRAP,1.0,-1,,Y,Columbus East Site,1614899113000,1614901142000,POINT (-9240824.626700001 4859686.889200002),70,71,71,2001,\OH\ColumbusEast,https://www.lm.doe.gov/Columbus_East/factsheet.pdf,14,39.95694,-83.01174,"Columbus East, OH, Site",COE,OH,https://www.energy.gov/lm/columbus-east-ohio-site,FUSRAP,1.0,-1,,Y,Columbus East Site,1614899113000,1614901142000,POINT (-9240824.626700001 4859686.889200002),COE,OH,2.6290035675888896,2.7711021745028814,2.791589828027893,2.796814862085739,2.835964981994116
71,71,72,72,1996,\OH\Fairfield,https://www.lm.doe.gov/Fairfield/factsheet.pdf,14,39.36087,-84.54117,"Fairfield, OH, Site",FFO,OH,https://www.energy.gov/lm/fairfield-ohio-site,FUSRAP,1.0,-1,,Y,Fairfield Site,1614899113000,1614901142000,POINT (-9411079.9955 4773495.7192),71,72,72,1996,\OH\Fairfield,https://www.lm.doe.gov/Fairfield/factsheet.pdf,14,39.36087,-84.54117,"Fairfield, OH, Site",FFO,OH,https://www.energy.gov/lm/fairfield-ohio-site,FUSRAP,1.0,-1,,Y,Fairfield Site,1614899113000,1614901142000,POINT (-9411079.9955 4773495.7192),FFO,OH,2.829965751490298,2.983481280782453,3.0081833883819042,3.005133272613711,3.057017214094695
72,72,73,73,1994,\IL\GraniteCity,https://www.lm.doe.gov/WorkArea/linkit.aspx?LinkIdentifier=id&ItemID=1249,14,38.69149,-90.16289,"Granite City, IL, Site",GRC,IL,https://www.energy.gov/lm/granite-city-illinois-site,FUSRAP,1.0,-1,,Y,Granite City Site,1614899113000,1614901142000,POINT (-10036887.0032 4677576.0145),72,73,73,1994,\IL\GraniteCity,https://www.lm.doe.gov/WorkArea/linkit.aspx?LinkIdentifier=id&ItemID=1249,14,38.69149,-90.16289,"Granite City, IL, Site",GRC,IL,https://www.energy.gov/lm/granite-city-illinois-site,FUSRAP,1.0,-1,,Y,Granite City Site,1614899113000,1614901142000,POINT (-10036887.0032 4677576.0145),GRC,IL,2.6681007970702404,2.7780752028465554,2.8121809492926757,2.7669605971475013,2.852542355221305
73,73,74,74,1997,\OH\Hamilton,https://www.lm.doe.gov/WorkArea/linkit.aspx?LinkIdentifier=id&ItemID=1725,14,39.38207,-84.54708000000001,"Hamilton, OH, Site",HAO,OH,https://www.energy.gov/lm/hamilton-ohio-site,FUSRAP,1.0,-1,,Y,Hamilton Site,1614899113000,1614901142000,POINT (-9411737.8937 4776548.529100001),73,74,74,1997,\OH\Hamilton,https://www.lm.doe.gov/WorkArea/linkit.aspx?LinkIdentifier=id&ItemID=1725,14,39.38207,-84.54708000000001,"Hamilton, OH, Site",HAO,OH,https://www.energy.gov/lm/hamilton-ohio-site,FUSRAP,1.0,-1,,Y,Hamilton Site,1614899113000,1614901142000,POINT (-9411737.8937 4776548.529100001),HAO,OH,2.829753559308301,2.98321557291932,3.007918328249287,3.004691747783193,3.0566444317376775
74,74,75,75,2004,\MA\IndianOrchard,https://www.lm.doe.gov/WorkArea/linkit.aspx?LinkIdentifier=id&ItemID=2173,14,42.15423,-72.49972,"Indian Orchard, MA, Site",INO,MA,https://www.energy.gov/lm/indian-orchard-massachusetts-site,FUSRAP,1.0,-1,,Y,Indian Orchard Site,1614899113000,1614901142000,POINT (-8070631.9131 5184110.420900002),74,75,75,2004,\MA\IndianOrchard,https://www.lm.doe.gov/WorkArea/linkit.aspx?LinkIdentifier=id&ItemID=2173,14,42.15423,-72.49972,"Indian Orchard, MA, Site",INO,MA,https://www.energy.gov/lm/indian-orchard-massachusetts-site,FUSRAP,1.0,-1,,Y,Indian Orchard Site,1614899113000,1614901142000,POINT (-8070631.9131 5184110.420900002),INO,MA,3.1020837386417304,3.3056193005208154,3.3377235961063674,3.3513092055998523,3.3953854290767267
75,75,76,76,1983,\NJ\JerseyCity,https://www.lm.doe.gov/WorkArea/linkit.aspx?LinkIdentifier=id&ItemID=1405,14,40.70906,-74.10219000000001,"Jersey City, NJ, Site",JEC,NJ,https://www.energy.gov/lm/jersey-city-new-jersey-site,FUSRAP,1.0,-1,,Y,Jersey City Site,1614899113000,1614901142000,POINT (-8249018.057499999 4969522.331900001),75,76,76,1983,\NJ\JerseyCity,https://www.lm.doe.gov/WorkArea/linkit.aspx?LinkIdentifier=id&ItemID=1405,14,40.70906,-74.10219000000001,"Jersey City, NJ, Site",JEC,NJ,https://www.energy.gov/lm/jersey-city-new-jersey-site,FUSRAP,1.0,-1,,Y,Jersey City Site,1614899113000,1614901142000,POINT (-8249018.057499999 4969522.331900001),JEC,NJ,3.095352164382348,3.314531622535024,3.339780075707785,3.377582822933154,3.3939445144379206
76,76,77,77,2002,\IL\Madison,https://www.lm.doe.gov/WorkArea/linkit.aspx?LinkIdentifier=id&ItemID=2550,14,38.68817,-90.16664200000001,"Madison, IL, Site",MAD,IL,https://www.energy.gov/lm/madison-illinois-site,FUSRAP,1.0,102672,,Y,Madison Site,1603926315000,1614901140000,POINT (-10037304.674 4677102.521700002),76,77,77,2002,\IL\Madison,https://www.lm.doe.gov/WorkArea/linkit.aspx?LinkIdentifier=id&ItemID=2550,14,38.68817,-90.16664200000001,"Madison, IL, Site",MAD,IL,https://www.energy.gov/lm/madison-illinois-site,FUSRAP,1.0,102672,,Y,Madison Site,1603926315000,1614901140000,POINT (-10037304.674 4677102.521700002),MAD,IL,2.6681007970702404,2.7780752028465554,2.8121809492926757,2.7669605971475013,2.852542355221305
77,77,78,78,1992,\NY\NiagaraFallsStorageVicinityProperties,https://www.lm.doe.gov/WorkArea/linkit.aspx?LinkIdentifier=id&ItemID=2226,14,43.21992684,-78.9732975,"Niagara Falls Storage Site Vicinity Properties, NY, Site",NFV,NY,https://www.energy.gov/lm/niagara-falls-storage-site-vicinity-properties-new-york-site,FUSRAP,1.0,-1,,Y,Niagara Falls Storage Site Vicinity Properties Site,1614899113000,1614901141000,POINT (-8791267.264 5345507.090999998),77,78,78,1992,\NY\NiagaraFallsStorageVicinityProperties,https://www.lm.doe.gov/WorkArea/linkit.aspx?LinkIdentifier=id&ItemID=2226,14,43.21992684,-78.9732975,"Niagara Falls Storage Site Vicinity Properties, NY, Site",NFV,NY,https://www.energy.gov/lm/niagara-falls-storage-site-vicinity-properties-new-york-site,FUSRAP,1.0,-1,,Y,Niagara Falls Storage Site Vicinity Properties Site,1614899113000,1614901141000,POINT (-8791267.264 5345507.090999998),NFV,NY,2.213926798984695,2.352335483707027,2.3657608777749046,2.368805954091008,2.3933579149981714
78,78,79,79,2001,\NJ\NewBrunswick,https://www.lm.doe.gov/WorkArea/linkit.aspx?LinkIdentifier=id&ItemID=1448,14,40.470348,-74.476119,"New Brunswick, NJ, Site",NWB,NJ,https://www.energy.gov/lm/new-brunswick-new-jersey-site,FUSRAP,2.0,3424,,Y,New Brunswick Site,1603926315000,1614901141000,POINT (-8290643.643300001 4934529.235600002),78,79,79,2001,\NJ\NewBrunswick,https://www.lm.doe.gov/WorkArea/linkit.aspx?LinkIdentifier=id&ItemID=1448,14,40.470348,-74.476119,"New Brunswick, NJ, Site",NWB,NJ,https://www.energy.gov/lm/new-brunswick-new-jersey-site,FUSRAP,2.0,3424,,Y,New Brunswick Site,1603926315000,1614901141000,POINT (-8290643.643300001 4934529.235600002),NWB,NJ,3.2153648335224716,3.4472605861392753,3.4741905318483948,3.5095328264318635,3.5269696236664845
79,79,80,80,1996,\NY\NewYork,https://www.lm.doe.gov/WorkArea/linkit.aspx?LinkIdentifier=id&ItemID=1608,14,40.74649,-74.00658,"New York, NY, Site",NYN,NY,https://www.energy.gov/lm/new-york-new-york-site,FUSRAP,1.0,-1,,Y,New York Site,1614899113000,1614901141000,POINT (-8238374.801000001 4975020.601899996),79,80,80,1996,\NY\NewYork,https://www.lm.doe.gov/WorkArea/linkit.aspx?LinkIdentifier=id&ItemID=1608,14,40.74649,-74.00658,"New York, NY, Site",NYN,NY,https://www.energy.gov/lm/new-york-new-york-site,FUSRAP,1.0,-1,,Y,New York Site,1614899113000,1614901141000,POINT (-8238374.801000001 4975020.601899996),NYN,NY,3.149662088799232,3.3713175382643463,3.3971808242371324,3.436080057175825,3.4526138667988175
80,80,81,81,1994,\TN\OakRidgeWarehouses,https://www.lm.doe.gov/WorkArea/linkit.aspx?LinkIdentifier=id&ItemID=1847,14,36.042608,-84.207185,"Oak Ridge, TN, Warehouses Site",ORW,TN,https://www.energy.gov/lm/oak-ridge-tennessee-warehouses-site,FUSRAP,1.0,-1,,Y,Oak Ridge Warehouses Site,1614899113000,1614901141000,POINT (-9373900.9553 4306485.752099998),80,81,81,1994,\TN\OakRidgeWarehouses,https://www.lm.doe.gov/WorkArea/linkit.aspx?LinkIdentifier=id&ItemID=1847,14,36.042608,-84.207185,"Oak Ridge, TN, Warehouses Site",ORW,TN,https://www.energy.gov/lm/oak-ridge-tennessee-warehouses-site,FUSRAP,1.0,-1,,Y,Oak Ridge Warehouses Site,1614899113000,1614901141000,POINT (-9373900.9553 4306485.752099998),ORW,TN,3.7516936056947867,3.9370900188124383,3.943502942429598,3.954850606765212,3.9849364104930887
81,81,82,82,1997,\OH\Oxford,https://www.lm.doe.gov/WorkArea/linkit.aspx?LinkIdentifier=id&ItemID=1735,14,39.50375,-84.74345500000001,"Oxford, OH, Site",OXO,OH,https://www.energy.gov/lm/oxford-ohio-site,FUSRAP,1.0,-1,,Y,Oxford Site,1614899113000,1614901141000,POINT (-9433598.2587 4794088.4727),81,82,82,1997,\OH\Oxford,https://www.lm.doe.gov/WorkArea/linkit.aspx?LinkIdentifier=id&ItemID=1735,14,39.50375,-84.74345500000001,"Oxford, OH, Site",OXO,OH,https://www.energy.gov/lm/oxford-ohio-site,FUSRAP,1.0,-1,,Y,Oxford Site,1614899113000,1614901141000,POINT (-9433598.2587 4794088.4727),OXO,OH,2.8661183409764948,3.0220284760171707,3.048956057071027,3.0436944954148046,3.0979516936411606
82,82,83,83,1995,\CT\Seymour,https://www.lm.doe.gov/WorkArea/linkit.aspx?LinkIdentifier=id&ItemID=1143,14,41.39823,-73.073137,"Seymour, CT, Site",SCT,CT,https://www.energy.gov/lm/seymour-connecticut-site,FUSRAP,1.0,-1,,Y,Seymour Site,1614899113000,1614901141000,POINT (-8134464.4015 5071259.139899999),82,83,83,1995,\CT\Seymour,https://www.lm.doe.gov/WorkArea/linkit.aspx?LinkIdentifier=id&ItemID=1143,14,41.39823,-73.073137,"Seymour, CT, Site",SCT,CT,https://www.energy.gov/lm/seymour-connecticut-site,FUSRAP,1.0,-1,,Y,Seymour Site,1614899113000,1614901141000,POINT (-8134464.4015 5071259.139899999),SCT,CT,3.498372712757763,3.7345796778297764,3.7693522900108873,3.798769893740215,3.839331884491332
83,83,84,84,1996,\PA\Springdale,https://www.lm.doe.gov/WorkArea/linkit.aspx?LinkIdentifier=id&ItemID=1814,14,40.537774,-79.782012,"Springdale, PA, Site",SPP,PA,https://www.energy.gov/lm/springdale-pennsylvania-site,FUSRAP,1.0,-1,,Y,Springdale Site,1614899113000,1614901141000,POINT (-8881292.950300001 4944400.6514),83,84,84,1996,\PA\Springdale,https://www.lm.doe.gov/WorkArea/linkit.aspx?LinkIdentifier=id&ItemID=1814,14,40.537774,-79.782012,"Springdale, PA, Site",SPP,PA,https://www.energy.gov/lm/springdale-pennsylvania-site,FUSRAP,1.0,-1,,Y,Springdale Site,1614899113000,1614901141000,POINT (-8881292.950300001 4944400.6514),SPP,PA,2.808180759036207,2.959899181448062,2.9698955244384706,2.9924825935016455,3.019028188545564
84,84,85,85,2001,\OH\Toledo,https://www.lm.doe.gov/WorkArea/linkit.aspx?LinkIdentifier=id&ItemID=1750,14,41.672238,-83.568668,"Toledo, OH, Site",TLO,OH,https://www.energy.gov/lm/toledo-ohio-site,FUSRAP,1.0,-1,,Y,Toledo Site,1614899113000,1614901141000,POINT (-9302821.568 5112008.031900004),84,85,85,2001,\OH\Toledo,https://www.lm.doe.gov/WorkArea/linkit.aspx?LinkIdentifier=id&ItemID=1750,14,41.672238,-83.568668,"Toledo, OH, Site",TLO,OH,https://www.energy.gov/lm/toledo-ohio-site,FUSRAP,1.0,-1,,Y,Toledo Site,1614899113000,1614901141000,POINT (-9302821.568 5112008.031900004),TLO,OH,2.28425257363207,2.4179854438617885,2.443930911775827,2.4401041301276334,2.4814715173480626
85,85,86,86,2009,\NY\TonawandaNorthUnit1,https://www.lm.doe.gov/WorkArea/linkit.aspx?LinkIdentifier=id&ItemID=2256,14,42.992981,-78.920112,"Tonawanda North, NY, Site Unit 1",TN1,NY,https://www.energy.gov/lm/tonawanda-north-new-york-site-unit-1,FUSRAP,1.0,-1,,Y,Tonawanda North Site Unit 1,1614899113000,1614901141000,POINT (-8785346.6812 5310903.544600002),85,86,86,2009,\NY\TonawandaNorthUnit1,https://www.lm.doe.gov/WorkArea/linkit.aspx?LinkIdentifier=id&ItemID=2256,14,42.992981,-78.920112,"Tonawanda North, NY, Site Unit 1",TN1,NY,https://www.energy.gov/lm/tonawanda-north-new-york-site-unit-1,FUSRAP,1.0,-1,,Y,Tonawanda North Site Unit 1,1614899113000,1614901141000,POINT (-8785346.6812 5310903.544600002),TN1,NY,2.5247740284352664,2.6798666967884044,2.697313952871519,2.7029535559159603,2.7332788898034934
86,86,87,87,2009,\NY\TonawandaNorthUnit2,https://www.lm.doe.gov/WorkArea/linkit.aspx?LinkIdentifier=id&ItemID=2256,14,42.998275,-78.915436,"Tonawanda North, NY, Site Unit 2",TN2,NY,https://www.energy.gov/lm/tonawanda-north-new-york-site-unit-2,FUSRAP,1.0,-1,,Y,Tonawanda North Site Unit 2,1614899113000,1614901141000,POINT (-8784826.1512 5311709.288000003),86,87,87,2009,\NY\TonawandaNorthUnit2,https://www.lm.doe.gov/WorkArea/linkit.aspx?LinkIdentifier=id&ItemID=2256,14,42.998275,-78.915436,"Tonawanda North, NY, Site Unit 2",TN2,NY,https://www.energy.gov/lm/tonawanda-north-new-york-site-unit-2,FUSRAP,1.0,-1,,Y,Tonawanda North Site Unit 2,1614899113000,1614901141000,POINT (-8784826.1512 5311709.288000003),TN2,NY,2.5275108868040013,2.6832146475189416,2.7009498484481,2.706870639961748,2.7373950745621847
87,87,459,88,2016,\OH\Painesville,https://www.lm.doe.gov/Painesville/PainesvilleFactSheet.pdf,14,41.756445,-81.23615600000001,"Painesville, OH, Site",PAI,OH,https://www.energy.gov/lm/painesville-ohio-site,FUSRAP,2.0,-1,,Y,Painesville Site,1614899113000,1614901141000,POINT (-9043167.5199 5124565.618699998),87,459,88,2016,\OH\Painesville,https://www.lm.doe.gov/Painesville/PainesvilleFactSheet.pdf,14,41.756445,-81.23615600000001,"Painesville, OH, Site",PAI,OH,https://www.energy.gov/lm/painesville-ohio-site,FUSRAP,2.0,-1,,Y,Painesville Site,1614899113000,1614901141000,POINT (-9043167.5199 5124565.618699998),PAI,OH,2.6198960352953042,2.7687398951805315,2.785042880621288,2.797403253715218,2.8305818257572257
88,88,460,89,2017,\NY\Tonawanda,https://www.lm.doe.gov/Tonawanda/TonawandaFactSheet.pdf,14,42.97665,-78.89375,"Tonawanda, NY, Site",TON,NY,https://www.energy.gov/lm/tonawanda-new-york-site,FUSRAP,2.0,-1,,Y,Tonawanda Site,1614899113000,1614901143000,POINT (-8782412.0768 5308418.413900003),88,460,89,2017,\NY\Tonawanda,https://www.lm.doe.gov/Tonawanda/TonawandaFactSheet.pdf,14,42.97665,-78.89375,"Tonawanda, NY, Site",TON,NY,https://www.energy.gov/lm/tonawanda-new-york-site,FUSRAP,2.0,-1,,Y,Tonawanda Site,1614899113000,1614901143000,POINT (-8782412.0768 5308418.413900003),TON,NY,2.55889717089823,2.7150124209738546,2.7329894028878967,2.738910315337249,2.7695171127251865
89,89,461,90,2019,\CT\Windsor,https://www.lm.doe.gov/Windsor/Windsor_Fact_Sheet.pdf,14,41.880214,-72.71927,"Windsor, CT, Site",WIN,CT,https://www.energy.gov/lm/windsor-connecticut-site,FUSRAP,1.0,-1,,Y,Windsor Site,1614899113000,1614901143000,POINT (-8095072.1073 5143052.9366),89,461,90,2019,\CT\Windsor,https://www.lm.doe.gov/Windsor/Windsor_Fact_Sheet.pdf,14,41.880214,-72.71927,"Windsor, CT, Site",WIN,CT,https://www.energy.gov/lm/windsor-connecticut-site,FUSRAP,1.0,-1,,Y,Windsor Site,1614899113000,1614901143000,POINT (-8095072.1073 5143052.9366),WIN,CT,3.1498954581495906,3.357136164243244,3.389896839616221,3.4068077267642987,3.449383515590911
90,90,462,91,2019,\MA\Attleboro,https://www.lm.doe.gov/Attleboro/Attleboro_Fact_Sheet.pdf,14,41.94343,-71.234169,"Attleboro, MA, Site",ATT,MA,https://www.energy.gov/lm/attleboro-massachusetts-site,FUSRAP,1.0,-1,,Y,Attleboro Site,1614899113000,1614901142000,POINT (-7929751.4202 5152509.295400001),90,462,91,2019,\MA\Attleboro,https://www.lm.doe.gov/Attleboro/Attleboro_Fact_Sheet.pdf,14,41.94343,-71.234169,"Attleboro, MA, Site",ATT,MA,https://www.energy.gov/lm/attleboro-massachusetts-site,FUSRAP,1.0,-1,,Y,Attleboro Site,1614899113000,1614901142000,POINT (-7929751.4202 5152509.295400001),ATT,MA,3.3255835692086424,3.540555877825295,3.578687331359338,3.5902146310539313,3.645081666098199
91,91,463,92,2006,\CA\LaboratoryforEnergy-RelatedHealthResearch,https://www.lm.doe.gov/WorkArea/linkit.aspx?LinkIdentifier=id&ItemID=909,14,38.519166,-121.75511100000001,"Laboratory for Energy-Related Health Research, CA, Site",LEH,CA,https://www.energy.gov/lm/laboratory-energy-related-health-research-lehr-california-site,CERCLA/RCRA,2.0,102642,,Y,Laboratory for Energy-Related Health Research Site,1603926315000,1614900646000,POINT (-13553716.958 4653028.403399996),91,463,92,2006,\CA\LaboratoryforEnergy-RelatedHealthResearch,https://www.lm.doe.gov/WorkArea/linkit.aspx?LinkIdentifier=id&ItemID=909,14,38.519166,-121.75511100000001,"Laboratory for Energy-Related Health Research, CA, Site",LEH,CA,https://www.energy.gov/lm/laboratory-energy-related-health-research-lehr-california-site,CERCLA/RCRA,2.0,102642,,Y,Laboratory for Energy-Related Health Research Site,1603926315000,1614900646000,POINT (-13553716.958 4653028.403399996),LEH,CA,1.30713531363007,1.3376762672181484,1.3230676247873208,1.3011313565329978,1.349351900149771
92,92,464,93,2004,\KY\MaxeyFlatsDisposal,https://www.lm.doe.gov/WorkArea/linkit.aspx?LinkIdentifier=id&ItemID=6123,14,38.25875,-83.57,"Maxey Flats, KY, Disposal Site",MAX,KY,https://www.energy.gov/lm/maxey-flats-kentucky-disposal-site,CERCLA/RCRA,1.0,-1,,Y,Maxey Flats Disposal Site,1614899113000,1614901140000,POINT (-9302969.8456 4616043.271399997),92,464,93,2004,\KY\MaxeyFlatsDisposal,https://www.lm.doe.gov/WorkArea/linkit.aspx?LinkIdentifier=id&ItemID=6123,14,38.25875,-83.57,"Maxey Flats, KY, Disposal Site",MAX,KY,https://www.energy.gov/lm/maxey-flats-kentucky-disposal-site,CERCLA/RCRA,1.0,-1,,Y,Maxey Flats Disposal Site,1614899113000,1614901140000,POINT (-9302969.8456 4616043.271399997),MAX,KY,3.1643580026866402,3.328460464833002,3.342765882104125,3.3522128233868145,3.3928263958628992
93,93,864,94,1958,\CO\GrandJunctionCalibrationModel,,14,39.043371,-108.573355,"Grand Junction, CO, Calibration Model",GJC,CO,,Unknown,,-1,,Y,Grand Junction Calibration Model,1614899113000,1614901142000,POINT (-12086330.5923 4727886.001599997),93,864,94,1958,\CO\GrandJunctionCalibrationModel,,14,39.043371,-108.573355,"Grand Junction, CO, Calibration Model",GJC,CO,,Unknown,,-1,,Y,Grand Junction Calibration Model,1614899113000,1614901142000,POINT (-12086330.5923 4727886.001599997),GJC,CO,0.6068430248108468,0.630326741576666,0.6268820708971767,0.6208989130987282,0.6300329531536301
94,94,865,95,1976,\CO\GrandJunctionRegionalAirportCalibrationModel,,14,39.128555,-108.53707,"Grand Junction Regional Airport, CO, Calibration Model",GAC,CO,,Unknown,,-1,,Y,Grand Junction Regional Airport Calibration Model,1614899113000,1614901142000,POINT (-12082291.3646 4740102.737800002),94,865,95,1976,\CO\GrandJunctionRegionalAirportCalibrationModel,,14,39.128555,-108.53707,"Grand Junction Regional Airport, CO, Calibration Model",GAC,CO,,Unknown,,-1,,Y,Grand Junction Regional Airport Calibration Model,1614899113000,1614901142000,POINT (-12082291.3646 4740102.737800002),GAC,CO,0.5990504288644972,0.6235598352004865,0.6202714523575932,0.6148905362177639,0.6243302030193166
95,95,866,96,1967,\NM\GrantsCalibrationModel,,14,35.25447,-107.84307,"Grants, NM, Calibration Model",GNC,NM,,Unknown,,32012,,Y,Grants Calibration Model,1550696772000,1614901142000,POINT (-12005035.638 4198516.598200001),95,866,96,1967,\NM\GrantsCalibrationModel,,14,35.25447,-107.84307,"Grants, NM, Calibration Model",GNC,NM,,Unknown,,32012,,Y,Grants Calibration Model,1550696772000,1614901142000,POINT (-12005035.638 4198516.598200001),GNC,NM,0.702396766424889,0.702316253383539,0.7007830404029634,0.6713806853527553,0.6982048287962708
96,96,867,97,1967,\TX\GeorgeWestCalibrationModel,,14,28.334928,-98.050831,"George West, TX, Calibration Model",GWC,TX,,Unknown,,-1,,Y,George West Calibration Model,1614899113000,1614901142000,POINT (-10914968.5788 3291266.549199998),96,867,97,1967,\TX\GeorgeWestCalibrationModel,,14,28.334928,-98.050831,"George West, TX, Calibration Model",GWC,TX,,Unknown,,-1,,Y,George West Calibration Model,1614899113000,1614901142000,POINT (-10914968.5788 3291266.549199998),GWC,TX,1.884658571361797,1.882312708016314,1.8404047439810498,1.8208771681143998,1.8106089555310083
97,97,868,98,1967,\WY\CasperCalibrationModel,,14,42.900981,-106.44535400000001,"Casper, WY, Calibration Model",CSC,WY,,Unknown,,-1,,Y,Casper Calibration Model,1614899113000,1614901142000,POINT (-11849442.6046 5296912.269599997),97,868,98,1967,\WY\CasperCalibrationModel,,14,42.900981,-106.44535400000001,"Casper, WY, Calibration Model",CSC,WY,,Unknown,,-1,,Y,Casper Calibration Model,1614899113000,1614901142000,POINT (-11849442.6046 5296912.269599997),CSC,WY,0.8382315754293553,0.91229083785986,0.9103536091525383,0.9129119521759926,0.9282892311603064
98,98,1264,99,2019,\NY\Colonie,https://www.lm.doe.gov/Colonie/ColonieFactSheet.pdf,14,42.689729,-73.802984,"Colonie, NY, Site",CLN,NY,https://www.energy.gov/lm/colonie-new-york-site,FUSRAP,2.0,6318,,Y,Colonie Site,1603926315000,1614901144000,POINT (-8215710.597899999 5264864.049699999),98,1264,99,2019,\NY\Colonie,https://www.lm.doe.gov/Colonie/ColonieFactSheet.pdf,14,42.689729,-73.802984,"Colonie, NY, Site",CLN,NY,https://www.energy.gov/lm/colonie-new-york-site,FUSRAP,2.0,6318,,Y,Colonie Site,1603926315000,1614901144000,POINT (-8215710.597899999 5264864.049699999),CLN,NY,2.588438447725951,2.7550755027635767,2.7766998807102086,2.7900779833447467,2.824123794515741
99,99,1265,100,2019,\CO\Bronco,,16,40.04797041,-108.36858549,"Bronco, CO, Site",BRO,CO,https://www.energy.gov/lm/plowsharevela-uniform-program-sites,PlowshareVelaUniform,2.0,-1,,Y,Bronco Site,1614899113000,1614901145000,POINT (-12063535.7548 4872915.659500003),99,1265,100,2019,\CO\Bronco,,16,40.04797041,-108.36858549,"Bronco, CO, Site",BRO,CO,https://www.energy.gov/lm/plowsharevela-uniform-program-sites,PlowshareVelaUniform,2.0,-1,,Y,Bronco Site,1614899113000,1614901145000,POINT (-12063535.7548 4872915.659500003),BRO,CO,0.9630401954187359,1.0163534015636617,1.008691518225223,1.0069688112398194,1.0192516128920537
100,100,1266,101,2019,\ID\Pre-SchoonerII,,17,42.40104084,-115.57569587,"Pre-Schooner II, ID, Site",PSC,ID,https://www.energy.gov/lm/plowsharevela-uniform-program-sites,PlowshareVelaUniform,1.0,-1,,Y,Pre-Schooner II Site,1614899113000,1614901145000,POINT (-12865827.6126 5221244.014899999),100,1266,101,2019,\ID\Pre-SchoonerII,,17,42.40104084,-115.57569587,"Pre-Schooner II, ID, Site",PSC,ID,https://www.energy.gov/lm/plowsharevela-uniform-program-sites,PlowshareVelaUniform,1.0,-1,,Y,Pre-Schooner II Site,1614899113000,1614901145000,POINT (-12865827.6126 5221244.014899999),PSC,ID,0.6818715659197291,0.7268499758577085,0.7186772718264268,0.7286284142789187,0.7384012797743669
101,101,1267,102,2019,\MT\Pre-GondolaandTrencher,,15,47.92821359,-106.64924178,"Pre-Gondola and Trencher, MT, Site",PGD,MT,https://www.energy.gov/lm/plowsharevela-uniform-program-sites,PlowshareVelaUniform,2.0,-1,,Y,Pre-Gondola and Trencher Site,1614899113000,1614901144000,POINT (-11872139.2879 6094920.431599997),101,1267,102,2019,\MT\Pre-GondolaandTrencher,,15,47.92821359,-106.64924178,"Pre-Gondola and Trencher, MT, Site",PGD,MT,https://www.energy.gov/lm/plowsharevela-uniform-program-sites,PlowshareVelaUniform,2.0,-1,,Y,Pre-Gondola and Trencher Site,1614899113000,1614901144000,POINT (-11872139.2879 6094920.431599997),PGD,MT,0.8062652427042849,0.8617466921108683,0.8558976946508838,0.8624515738119953,0.87362793115546
102,102,1268,103,2019,\UT\Utah,,18,39.98549651,-109.61155183,"Utah, UT, Site",UTA,UT,https://www.energy.gov/lm/plowsharevela-uniform-program-sites,PlowshareVelaUniform,2.0,-1,,Y,Utah Site,1614899113000,1614901144000,POINT (-12201902.1343 4863834.896300003),102,1268,103,2019,\UT\Utah,,18,39.98549651,-109.61155183,"Utah, UT, Site",UTA,UT,https://www.energy.gov/lm/plowsharevela-uniform-program-sites,PlowshareVelaUniform,2.0,-1,,Y,Utah Site,1614899113000,1614901144000,POINT (-12201902.1343 4863834.896300003),UTA,UT,0.5241637431351721,0.5506833773092404,0.5451416148195889,0.5448215242742005,0.5503962904379265
103,103,1670,106,2020,\NV\TonopahTestRange,https://www.energy.gov/sites/prod/files/2020/09/f79/TonopahTestRangeFactSheet.pdf,11,37.886032,-116.762188,"Tonopah Test Range, NV, Site",TTR,NV,https://www.energy.gov/lm/tonopah-test-range-nevada-site,Nevada Offsites,2.0,-1,,Y,Tonopah Test Range Site,1614899113000,1614901145000,POINT (-12997907.3121 4563338.443400003),103,1670,106,2020,\NV\TonopahTestRange,https://www.energy.gov/sites/prod/files/2020/09/f79/TonopahTestRangeFactSheet.pdf,11,37.886032,-116.762188,"Tonopah Test Range, NV, Site",TTR,NV,https://www.energy.gov/lm/tonopah-test-range-nevada-site,Nevada Offsites,2.0,-1,,Y,Tonopah Test Range Site,1614899113000,1614901145000,POINT (-12997907.3121 4563338.443400003),TTR,NV,0.36462959146774665,0.38346491993987464,0.3721532684508891,0.3703666944824982,0.38389278612409355
